{"type": "FeatureCollection", "features": [{"type": "Feature", "id": "a0", "properties": {"id": "a0", "name": "isle 0", "value": 311.2671}, "geometry": {"type": "MultiPolygon", "coordinates": [[[[-30.66933187796372, -3.108734831794205], [-30.668252925609774, -2.851306406622329], [-30.77823611932352, -2.6539466010837147], [-31.05588166269073, -2.5564293467205648], [-31.175857290507988, -2.2608487615572366], [-31.401990651041224, -2.332230908359559], [-31.62189958845271, -2.4413835258836625], [-31.814522550172633, -2.3989355170762545], [-32.14559341828253, -2.4515155981104857], [-32.19181924217146, -2.6499120099046314], [-32.33037955483113, -2.8849678279993625], [-32.1695346442, -3.1087348317942047], [-32.15012617135424, -3.3065846931971405], [-32.28281500071663, -3.6152398804618677], [-32.015300118354155, -3.7061461274507232], [-31.861149079449046, -3.8473877464227666], [-31.661185107316015, -3.942815826690547], [-31.40321523885837, -3.9880930008827016], [-31.24283820091058, -3.9423811185555984], [-30.904134234239184, -3.796105906475891], [-30.797292678343823, -3.490606899910042], [-30.673982788565155, -3.3445443708372755], [-30.66933187796372, -3.108734831794205]]], [[[10.89074199571722, -8.216578541019913], [10.82822506170389, -8.021771679154691], [10.702782011096096, -7.815853278352736], [10.54776941390154, -7.781843096259518], [10.344534704987554, -7.7632343232706775], [10.128884658835924, -7.936486681951216], [10.099927760434065, -8.01292999481527], [9.910107336118195, -8.216578541019913], [10.033382265246905, -8.37797705181836], [10.167114036657843, -8.577813227856705], [10.336915174975314, -8.686683087475135], [10.536290798470796, -8.647196152651087], [10.677318775249187, -8.627992864091949], [10.787458331059685, -8.42632374031563], [10.89074199571722, -8.216578541019913]]], [[[7.026338172762477, -10.82154714093219], [6.455116686958906, -9.890647970860552], [5.412224017086816, -9.331141931258783], [4.251631984893798, -9.298222556355986], [3.6009564703811217, -10.290591038505456], [3.877381641357578, -11.32986361453589], [4.388468015791627, -12.351758159815118], [5.43494278988261, -12.160546005239308], [6.260320631259899, -12.001572051381515], [7.026338172762477, -10.82154714093219]]]]}}, {"type": "Feature", "id": "a1", "properties": {"id": "a1", "name": "isle 1", "value": 600.5976}, "geometry": {"type": "MultiPolygon", "coordinates": [[[[37.85671946108652, 28.973654397000352], [37.771920261699144, 29.477481669701042], [37.27666364945089, 29.833777472490354], [36.72143558759487, 30.073409787123023], [36.26547067374318, 29.89401828715032], [35.55364338185499, 29.48547086534893], [35.68469007814537, 28.973654397000352], [35.69997222528404, 28.368874130002865], [36.19023707378308, 28.0073120320625], [36.72143558759487, 27.81563620066706], [37.3743608087001, 27.841048530318396], [37.67240588188092, 28.471006717774475], [37.85671946108652, 28.973654397000352]]], [[[-5.3121034158008875, -14.553876188511714], [-5.331938253093165, -13.95086301286262], [-5.929804841597285, -13.360380596514325], [-6.661356469958919, -13.5599346097023], [-7.400248049287903, -13.529148802323737], [-7.614077705164879, -14.210107550701736], [-7.740996804898344, -14.837933409052376], [-7.164795559664339, -15.5328853935483], [-6.6482011274527055, -15.83510130846801], [-6.063401498467727, -15.45155650192286], [-5.658685986246036, -15.138365972613201], [-5.3121034158008875, -14.553876188511714]]], [[[4.463521120436619, -26.724532796674186], [4.4107445621535835, -26.57815089569042], [4.350572302032101, -26.449727372943173], [4.196214769053252, -26.358206963692485], [4.046436465418412, -26.39382239449888], [3.8938856290499193, -26.443407684165656], [3.8883115464331706, -26.585241487725575], [3.7982902924835598, -26.724532796674186], [3.7888209319955153, -26.868281502878425], [3.9528023972765776, -26.97561655656144], [4.059149602369151, -26.985079604246167], [4.192442211980943, -26.99313093198638], [4.318201431249018, -26.92425780957039], [4.382431859352659, -26.840648611552997], [4.463521120436619, -26.724532796674186]]], [[[-14.360114770466879, -29.143795764383963], [-14.567429837127516, -28.027336833592948], [-15.833399095502822, -27.51411980569596], [-17.33812995459225, -27.536188020521823], [-18.168688164459063, -28.57366461296189], [-18.09324894101607, -29.768540706464126], [-17.21223157708161, -31.113548468764236], [-15.856380503676451, -31.344229374498752], [-14.743892432762298, -30.477272250158332], [-14.360114770466879, -29.143795764383963]]]]}}, {"type": "Feature", "id": "a2", "properties": {"id": "a2", "name": "isle 2", "value": 443.6935}, "geometry": {"type": "MultiPolygon", "coordinates": [[[[-26.297552019438815, -15.238952156047514], [-26.34237511423304, -14.869422510647503], [-26.582106851993125, -14.33305674113368], [-26.942818054355993, -14.166295193224503], [-27.39342676187398, -13.973944131856584], [-27.888557338282823, -14.157838126044627], [-28.11490852625539, -14.38542265055322], [-28.402473608599067, -14.61025627767561], [-28.788193924613033, -15.043185574734014], [-28.65704830729249, -15.454185116211463], [-28.408551034458874, -15.982373757304378], [-28.163743327890305, -16.225306489396438], [-27.796830903549466, -16.67166020747694], [-27.36990064032013, -16.540594677728023], [-26.90557874058506, -16.35982022947997], [-26.558598066985, -16.06965533059696], [-26.440915941033488, -15.67058415340483], [-26.297552019438815, -15.238952156047514]]]]}}, {"type": "Feature", "id": "a3", "properties": {"id": "a3", "name": "isle 3", "value": 744.6009}, "geometry": {"type": "MultiPolygon", "coordinates": [[[[32.77231620705455, 22.10760262762416], [32.16563117755845, 23.125267411588386], [31.277949949182705, 23.422639532568496], [30.11997372243402, 23.50895125012253], [29.352301177257083, 22.60535572188842], [29.45045873136019, 21.52695450115573], [30.029068636061094, 20.805396937057075], [31.193471827926114, 20.30977173691534], [32.351730946491244, 21.23236618795761], [32.77231620705455, 22.10760262762416]]], [[[-34.943208950711025, 7.906796075710176], [-35.09333127872194, 8.10867410646835], [-35.18500874779317, 8.169161965416569], [-35.41108926940564, 8.252917301919096], [-35.58841285546385, 8.09209392923401], [-35.582174218167076, 7.906796075710176], [-35.55880867529503, 7.748272187281527], [-35.383335832593175, 7.665496635830039], [-35.19627603413669, 7.614992863300905], [-35.05376201318537, 7.725920750411517], [-34.943208950711025, 7.906796075710176]]], [[[14.651370903421435, -17.461651253621806], [14.386021185509495, -16.9631065742181], [14.064065868620109, -16.699083624336584], [13.988278862594278, -16.50731028044625], [13.550020794975095, -16.118417448437718], [13.069015102263958, -15.970716202100748], [12.714632117572059, -16.037361178847885], [12.102853738249085, -16.494838970631292], [11.92299308704566, -16.78267072214822], [11.603810216410896, -17.278577010992933], [11.914024655801807, -17.690448586314922], [11.835888570791658, -18.082236128062224], [12.286188170095054, -18.63400761651995], [12.734804264911833, -18.711121156790682], [13.04738260229171, -18.757958675227847], [13.521098374209686, -18.977313663831097], [13.896090254745157, -18.49889813389036], [14.194110967039482, -18.127715029727288], [14.43367884353674, -17.927675232047086], [14.651370903421435, -17.461651253621806]]]]}}, {"type": "Feature", "id": "a4", "properties": {"id": "a4", "name": "isle 4", "value": 343.122}, "geometry": {"type": "MultiPolygon", "coordinates": [[[[-34.91644086813613, 23.858161715032928], [-35.011655349286194, 24.458913571904347], [-35.54672581173536, 25.17664408594647], [-36.30264122530779, 25.065768432684113], [-37.007449335481326, 24.967958757876662], [-37.38051460106527, 24.28268232430061], [-37.34713232485589, 23.459226605187354], [-36.95636486662064, 22.807725172294337], [-36.327083312170956, 22.81657853659717], [-35.679827286892824, 22.497694890721917], [-35.270866230921, 23.113844067543383], [-34.91644086813613, 23.858161715032928]]], [[[35.80065754257439, 29.351121230427665], [35.79333481676733, 30.77130297173797], [34.60056030780101, 31.54803876683612], [33.17120631543414, 31.57102942620309], [31.93798862000974, 30.612063437637325], [31.79083758991074, 29.351121230427665], [32.159636328079664, 28.154274472997866], [33.14815448278298, 27.4660075373396], [34.458398922386806, 27.416573935676098], [35.781182818653086, 28.19818528646241], [35.80065754257439, 29.351121230427665]]], [[[36.7961355598689, 9.915653577642956], [36.84035057948961, 10.124701963384359], [36.7442049274192, 10.286427280285016], [36.56935970346503, 10.281974113007422], [36.37607146340301, 10.306274281891548], [36.16659728807909, 10.307039436399634], [36.02848106526633, 10.280362699829109], [36.02660697196346, 10.107910204255155], [36.00783184948584, 9.915653577642956], [35.96040811536537, 9.726885866459744], [35.99112103528451, 9.609109121733947], [36.21186545805836, 9.575888995882691], [36.37607146340301, 9.391694846812257], [36.55917107352429, 9.447837294964486], [36.67365121233824, 9.54999327289721], [36.86835929587964, 9.720977318641456], [36.7961355598689, 9.915653577642956]]], [[[-18.837621094362678, -25.245964080280388], [-19.21042151575549, -24.572758993728673], [-19.683489301734475, -24.036427634679747], [-20.324905247773817, -24.32977333940553], [-20.746361513942137, -24.59876806750041], [-20.961021330337307, -25.245964080280388], [-20.85319432696924, -25.761828041325135], [-20.280185266830408, -26.242686520893447], [-19.58738590695845, -26.241778538521903], [-19.271805319718574, -25.91002142681467], [-18.837621094362678, -25.245964080280388]]]]}}, {"type": "Feature", "id": "a5", "properties": {"id": "a5", "name": "isle 5", "value": 185.0035}, "geometry": {"type": "MultiPolygon", "coordinates": [[[[-28.30378437898577, 20.12159630209367], [-29.193251017097683, 21.560630876148025], [-30.789028266578107, 21.669415163319005], [-31.540820469116436, 20.12159630209367], [-31.09173425576293, 18.307623637446966], [-29.026802751917227, 18.79397730617327], [-28.30378437898577, 20.12159630209367]]], [[[-8.814737582076802, -25.627815786346616], [-8.839789210104037, -25.107328174238468], [-9.324313717243733, -24.692193408843607], [-9.62377874168343, -24.38749451936847], [-10.173739343880566, -24.50704299049975], [-10.509905205951304, -24.557920913637844], [-10.774368816281012, -25.105646938243567], [-10.868625389155078, -25.627815786346616], [-10.922279209020354, -26.109337619837813], [-10.694715875038181, -26.453615512441658], [-10.192264391152722, -26.666178265177816], [-9.686072419626637, -26.81882731746191], [-9.19090359838141, -26.6166519421586], [-8.965863975963423, -26.146688416209276], [-8.814737582076802, -25.627815786346616]]]]}}, {"type": "Feature", "id": "a6", "properties": {"id": "a6", "name": "isle 6", "value": 321.2418}, "geometry": {"type": "MultiPolygon", "coordinates": [[[[4.206893203682874, 2.1558963356652967], [3.9829208303315022, 2.546745748161317], [3.627280011069118, 2.8674664601847826], [3.253253159785213, 2.5371438907446096], [3.0067061477117245, 2.1558963356652967], [3.275137249759976, 1.6732315823314687], [3.627280011069118, 1.4899893807854285], [4.1272194851096105, 1.7837434197926374], [4.206893203682874, 2.1558963356652967]]], [[[-12.108123937660757, -12.358524986672553], [-11.952726077567231, -12.047500409480103], [-12.307314047285384, -11.770379797474225], [-12.566809815384763, -11.503602330188539], [-12.943344835109027, -11.266431259725824], [-13.26994353499565, -11.258924172420084], [-13.611321849614102, -11.620717274208484], [-13.862769754497876, -11.767522332971172], [-14.135836055703471, -12.021754110934818], [-14.156628590776819, -12.358524986672553], [-14.098194645732812, -12.695593276474003], [-13.819201021314719, -13.105469894727731], [-13.637938508828158, -13.06044443953427], [-13.283793037621654, -13.53723901203787], [-12.940232464639745, -13.448360378647711], [-12.511975127773212, -13.345105557400293], [-12.413193289988858, -13.111562106016196], [-12.290534559843143, -12.644753746388286], [-12.108123937660757, -12.358524986672553]]], [[[5.926569121104031, -15.080486794464356], [5.960699390510884, -14.538384435933473], [5.692474493906185, -14.201103471695134], [5.646529945277163, -13.696264552324969], [4.974565262228746, -13.710778943688293], [4.473547734300293, -13.293804336780303], [3.907432421880862, -13.433439997584234], [3.3436290775842727, -13.926580368528072], [3.335028511250859, -14.268689261076977], [2.7889159077704564, -14.797258303518962], [3.048135834160713, -15.340610080029009], [3.4825686270510254, -15.984468865716945], [3.7081350293425963, -16.343953427365904], [4.022781426582198, -16.590373798581698], [4.50523480091035, -16.950741744089076], [4.96431869377544, -16.641983405247643], [5.323996823245024, -16.32414856607406], [6.067835716180038, -16.130749980079205], [6.254345660658012, -15.54621617720632], [5.926569121104031, -15.080486794464356]]], [[[-1.6437768796551917, 11.415597688217055], [-1.8938704452343642, 11.763852674757969], [-2.221857987092015, 11.899597263017816], [-2.6230184079391248, 11.754115641766667], [-2.8199614283825687, 11.415597688217055], [-2.6516211462362658, 11.00159411045855], [-2.221857987092015, 10.793294865215824], [-1.80548495808583, 11.056160339572626], [-1.6437768796551917, 11.415597688217055]]]]}}, {"type": "Feature", "id": "a7", "properties": {"id": "a7", "name": "isle 7", "value": 335.3706}, "geometry": {"type": "MultiPolygon", "coordinates": [[[[-20.6554172449256, -0.5228435217687846], [-20.953589422224155, 0.15784954070930446], [-21.487137408556123, 0.4469219298849304], [-21.83970742478446, 1.0571688703551838], [-22.402930011209705, 0.934387742512881], [-23.02847114716147, 0.9078124798316958], [-23.19988300626511, 0.39985398950265594], [-23.369505464187505, -0.2080625764052758], [-23.49937253468967, -0.8577720869787786], [-23.44946534245078, -1.3885296619008556], [-22.865828072981106, -1.934177418274783], [-22.391051041236487, -1.8699454079871352], [-21.88000363952884, -2.0775755984111637], [-21.26453714875834, -1.6038311900840265], [-21.112408189656364, -0.9948529567845934], [-20.6554172449256, -0.5228435217687846]]], [[[-33.476807623019624, -3.1860837042787757], [-33.78896860692699, -2.9248402324812433], [-33.885083416483056, -2.601611470367064], [-33.781607110882476, -2.4316507375252807], [-34.096052814013355, -2.1513790900967735], [-34.35023752276395, -2.3771720054540126], [-34.618790978324405, -2.069793677755947], [-34.889364644087316, -2.0237056026038838], [-35.1617693736962, -2.211361294812464], [-35.34664275184467, -2.368053815129177], [-35.44399829750163, -2.633312719456806], [-35.6214674954614, -2.8884519859765305], [-35.43913583626294, -3.1860837042787757], [-35.6301296904272, -3.44674862944333], [-35.32463060512368, -3.6567245755008897], [-35.23473665690242, -3.821676460535173], [-35.08967811808357, -3.894687682537533], [-34.84506096020175, -4.04066729861718], [-34.618790978324405, -4.1334716643970975], [-34.35343217972135, -4.148123989258619], [-34.19713602428976, -4.154617859581359], [-33.76702461752328, -3.9480181177731137], [-33.90854801040571, -3.7328820474746496], [-33.556813911446405, -3.492057667415362], [-33.476807623019624, -3.1860837042787757]]], [[[-34.966294385353066, 24.584966690694436], [-34.5961643985539, 25.165219674101245], [-35.31032907280657, 25.588930556140234], [-35.36678504139143, 26.01709862808457], [-36.006327861591366, 26.763889157542636], [-36.7939026814211, 26.77469881310892], [-37.38994882590803, 26.213761890426653], [-38.16103598650816, 26.46215910052057], [-38.37209617726186, 25.890576577468433], [-38.56978051167527, 25.15099524615976], [-39.17480041756285, 24.584966690694436], [-38.70369549725931, 23.81065714319402], [-38.22150256997157, 23.273328537540912], [-38.09845691054676, 23.134391323040482], [-37.439046703792016, 22.657318374043882], [-36.7939026814211, 22.202832872462736], [-36.05495586606123, 22.823036853681035], [-35.51526912532263, 23.092538947291104], [-35.401029514228796, 23.2214708786134], [-35.017994291612666, 24.008518788334346], [-34.966294385353066, 24.584966690694436]]]]}}, {"type": "Feature", "id": "a8", "properties": {"id": "a8", "name": "isle 8", "value": 378.1627}, "geometry": {"type": "MultiPolygon", "coordinates": [[[[40.5695223928074, -28.940592144815206], [39.94891587319456, -27.584440835996304], [38.784720255702055, -26.646492120330848], [37.63495374354115, -27.192005386478435], [36.27866561531751, -27.67418920794274], [35.76039654032439, -28.940592144815206], [36.763672410063386, -30.09189437570629], [37.4251438092605, -30.522682336895684], [38.90246405432944, -31.294329273778413], [39.99732445416524, -30.17935045486505], [40.5695223928074, -28.940592144815206]]], [[[35.31056661580946, 9.973844500478286], [35.32319015218913, 10.21722186846485], [35.048828720447645, 10.449892534359229], [34.88858964052656, 10.525180806324864], [34.700651602455835, 10.600984603520159], [34.521930439977545, 10.506015821091863], [34.348466283303104, 10.366551347539211], [34.271402736749096, 10.165305388000437], [34.05347880211175, 9.973844500478286], [34.09412903780016, 9.723490067100165], [34.28991786588662, 9.54555417394785], [34.50038796682787, 9.516137714138301], [34.700651602455835, 9.458697770414274], [34.91020695034162, 9.386072234546992], [35.186393745560736, 9.564157478180054], [35.29182063129695, 9.74637831606518], [35.31056661580946, 9.973844500478286]]]]}}, {"type": "Feature", "id": "a9", "properties": {"id": "a9", "name": "isle 9", "value": 746.886}, "geometry": {"type": "MultiPolygon", "coordinates": [[[[11.500944729162939, 18.866450555720803], [11.259066301245163, 19.75276885671452], [10.665392580616851, 19.96976060238605], [9.863188770759509, 20.325107907200636], [9.296016303890777, 20.076060718454645], [8.593490784019085, 19.242039814142213], [8.470199853607046, 18.459174553754583], [8.991240926410724, 17.658988219272295], [9.821663937112744, 17.349027469399594], [10.517533901548074, 17.526455701962107], [10.990886012851318, 18.05341155041477], [11.500944729162939, 18.866450555720803]]], [[[3.6981911220959516, 7.178401166284125], [3.0890337710151883, 8.040705672143671], [2.4555805610539103, 8.332292740589054], [1.5226392991270696, 8.099256724717277], [0.9840645479403287, 7.626422164922681], [0.900515499660608, 6.814566330661553], [1.4954657723995148, 6.164045674769504], [2.52640081460072, 5.755435790738895], [3.3567384504599946, 6.353428227844304], [3.6981911220959516, 7.178401166284125]]], [[[27.870374334225616, 24.994998020636118], [27.791145423183536, 25.36990804398508], [27.699031146321197, 25.747942222440226], [27.58208270028523, 26.167793341006874], [27.306149739380064, 26.493957556266327], [26.968486357336612, 26.34289128996638], [26.532874157780842, 26.40117855043851], [26.05211000329205, 26.194655128957493], [25.686096929039635, 26.10947954468623], [25.405197524496568, 25.876201056142744], [25.53941430649112, 25.585008261707355], [25.18048425487307, 25.21872126662614], [25.29197510696528, 24.772672661637376], [25.35272278182862, 24.382348056272843], [25.266038608387213, 24.20500092748915], [25.838021412688786, 23.836553485975333], [26.053379504585322, 23.727973528127748], [26.505292399792655, 23.624771148146905], [26.865689734738638, 23.570592142070904], [27.163048822901704, 23.43814376745883], [27.53372138130779, 23.98330182024069], [27.94527886029983, 24.103425370573024], [28.17258272034364, 24.561116059244846], [27.870374334225616, 24.994998020636118]]], [[[34.328634200845045, -8.131178659158152], [34.147252118697644, -7.550706943717927], [34.40807181647316, -7.072490064094036], [33.89368169972543, -6.823451921548656], [33.473110551272526, -6.79992837541033], [32.99689001660701, -6.209259971605928], [32.53237327896708, -6.568768785818275], [31.916866221680717, -6.5837728323170985], [31.794721703283503, -6.909888848262253], [31.277070721146867, -7.110803696592408], [31.291316769904746, -7.713980917962427], [30.95544653554455, -8.13117865915815], [30.999187527766264, -8.64311802935486], [31.20845372149015, -9.17310885480742], [31.800446283228624, -9.500787066499768], [32.13109155547849, -9.42231440187603], [32.530050305625146, -9.776530232221083], [32.995148524068156, -10.15402589818658], [33.36521706219376, -9.77144009382587], [34.07794105255458, -9.540627447282539], [34.2465949624516, -9.0114339267361], [34.28209115165102, -8.585681248271191], [34.328634200845045, -8.131178659158152]]]]}}, {"type": "Feature", "id": "a10", "properties": {"id": "a10", "name": "isle 10", "value": 330.4151}, "geometry": {"type": "MultiPolygon", "coordinates": [[[[8.027850782725293, 29.475729462967543], [8.219163252745311, 30.062443778663354], [7.739084417990741, 30.453833665047664], [7.004485402116735, 30.521124228306697], [6.471772585495078, 30.594159544984304], [5.9265186399858845, 30.101368844765336], [5.582659098920255, 29.475729462967543], [5.91203432213773, 28.797216691730416], [6.367426641329606, 28.61176877649377], [7.004485402116735, 28.08260652566034], [7.544051714751088, 28.296764801761952], [7.930384669815182, 28.83382626451936], [8.027850782725293, 29.475729462967543]]], [[[-19.54809504947596, -15.414234075003954], [-19.525741114660175, -15.0624675291274], [-19.80572567538868, -14.544990337863961], [-20.249106744309827, -14.479662499281034], [-20.641502174963506, -14.680076302224617], [-21.13808250296364, -14.899132876844737], [-21.10387847068381, -15.230057458724641], [-21.298666624448728, -15.61387706110278], [-20.930587375327484, -15.907078134709431], [-20.683205195115388, -16.18355927346749], [-20.239736844310528, -16.331801370451853], [-19.778984954787518, -16.199210420107935], [-19.507193514940088, -15.841070814658746], [-19.54809504947596, -15.414234075003954]]], [[[-10.951587509068979, 13.810863740650674], [-11.390243512311953, 14.511327339330265], [-11.501028640190452, 14.984111382920027], [-12.240469125400121, 15.656780014008344], [-12.860191507269716, 15.454040241703416], [-13.437864371076868, 15.229069416302968], [-14.018209793558679, 15.336241449314256], [-14.253486486624777, 14.741004001461274], [-14.832440451392372, 14.093125999410274], [-14.81708740924038, 13.537073555278976], [-14.59555553625016, 12.983603142451747], [-14.06272247084122, 12.173882060353339], [-13.394699248946512, 11.800442177504477], [-12.817066121600897, 11.784562070848965], [-12.068855342086001, 12.334822042714183], [-11.74987645806663, 12.578626147834786], [-11.232257713100784, 13.210911519063727], [-10.951587509068979, 13.810863740650674]]]]}}, {"type": "Feature", "id": "a11", "properties": {"id": "a11", "name": "isle 11", "value": 61.7288}, "geometry": {"type": "MultiPolygon", "coordinates": [[[[23.120994281818756, -7.2321935852179], [22.95851484022689, -6.878167926318719], [22.580833051089865, -6.910387792808782], [22.415812876068376, -7.2321935852179], [22.566395353966847, -7.616374148212761], [23.00567124965809, -7.514662324727977], [23.120994281818756, -7.2321935852179]]]]}}, {"type": "Feature", "id": "a12", "properties": {"id": "a12", "name": "isle 12", "value": 442.1883}, "geometry": {"type": "MultiPolygon", "coordinates": [[[[-14.076251686507367, -18.2287259737718], [-14.037277146617209, -17.822397674119504], [-14.087576278762228, -17.452280733418373], [-14.539645042631134, -17.262748732095936], [-14.936170158204447, -17.38238807773271], [-15.405057155418145, -17.415576175013932], [-15.731255770647408, -17.399975113327667], [-15.825768225031723, -17.786239415920658], [-15.787004091454662, -18.2287259737718], [-15.778507507872193, -18.626541946182453], [-15.538754131421628, -18.88370726105304], [-15.37853432743202, -19.066463982555547], [-14.936170158204447, -19.311033084259666], [-14.617431408107665, -19.07504717398418], [-14.309329110624857, -18.82367230863303], [-13.96279266459597, -18.643403708894965], [-14.076251686507367, -18.2287259737718]]], [[[16.096925661604146, 10.273599806523293], [15.602029894870217, 11.10054236247431], [14.752606726521416, 11.089244568850585], [14.361525766062208, 10.273599806523293], [14.668758496733023, 9.499374603610182], [15.691144788842955, 9.398529933199844], [16.096925661604146, 10.273599806523293]]], [[[-25.710124230084478, 29.00039729089803], [-25.654149735735736, 29.166956962838373], [-25.781762888582012, 29.335182920141133], [-25.889400913065753, 29.398743377483868], [-26.01697683845076, 29.599631254544512], [-26.1934615485829, 29.461316086528136], [-26.36563864813348, 29.42965634888074], [-26.451798622593618, 29.513719551799216], [-26.66474565256377, 29.34782008082435], [-26.612189302822504, 29.186276068170052], [-26.64502925700548, 29.00039729089803], [-26.603284560642404, 28.859295553023234], [-26.691041812782423, 28.633534973161634], [-26.466846200587643, 28.498634996105626], [-26.39038910156034, 28.517231413204524], [-26.1934615485829, 28.5561295238236], [-25.99981870425017, 28.570536080248694], [-25.854492810946926, 28.510825474515052], [-25.73768780911798, 28.736656071129346], [-25.780420552702903, 28.83990447977132], [-25.710124230084478, 29.00039729089803]]], [[[-26.877894600934592, 16.54933833421333], [-27.27558474910576, 18.4090942746189], [-29.444914726586155, 19.264023350602262], [-31.363710187029437, 17.704730041344042], [-31.121757402607827, 15.326093355641042], [-29.50321438674397, 14.218825455556853], [-27.133447189958815, 14.715542810606435], [-26.877894600934592, 16.54933833421333]]]]}}, {"type": "Feature", "id": "a13", "properties": {"id": "a13", "name": "isle 13", "value": 949.9618}, "geometry": {"type": "MultiPolygon", "coordinates": [[[[22.696677175900028, 13.314677616701267], [22.424421752960086, 13.728077142076385], [22.300305958179056, 14.027639612190582], [21.98293007146353, 14.285714535485273], [21.598104638221635, 14.152113010175901], [21.22448537854559, 13.886366720890681], [21.154941406060352, 13.641485023004394], [20.8753849949745, 13.314677616701267], [21.162456507452475, 12.911394758454753], [21.174567244641878, 12.64605252774746], [21.559062990422923, 12.59975981688134], [21.949510603754636, 12.587345955471745], [22.355672621220915, 12.667893444129275], [22.539146615575724, 12.984482094672089], [22.696677175900028, 13.314677616701267]]], [[[-23.31194156178315, 12.187744229015351], [-23.38086131640128, 13.052643935805671], [-23.900229094555147, 14.046525532912195], [-24.51161896214656, 13.868927579808817], [-25.322822901422754, 14.1238611927598], [-25.917615548858343, 13.992296152415486], [-26.691612607101376, 13.138753838725568], [-26.88646169596123, 12.187744229015351], [-26.73997263290585, 11.247785843734937], [-25.938018462964198, 10.91854917333959], [-25.30961668946176, 10.210859628814752], [-24.40849400519702, 9.962641980117432], [-23.881664372910407, 10.345912867518205], [-22.991525786293863, 11.337116465571244], [-23.31194156178315, 12.187744229015351]]], [[[-29.956346701516217, -18.57130632014934], [-30.008302713345767, -18.469913848166613], [-29.99759989297382, -18.37462937554902], [-30.118809945794702, -18.331442401084395], [-30.193925600273236, -18.236229320183437], [-30.30473160302101, -18.267955577486227], [-30.393892126240324, -18.2852633781278], [-30.49544505755233, -18.305353534178444], [-30.583415214972156, -18.357330732052407], [-30.651126028592248, -18.475972855273756], [-30.6375465741785, -18.57130632014934], [-30.627283189047855, -18.679190037822398], [-30.536041346612713, -18.7469116124267], [-30.505614863945144, -18.821760318981894], [-30.41783169878863, -18.883772338271548], [-30.30473160302101, -18.934250138061454], [-30.193342424169874, -18.846785281635505], [-30.088007904531544, -18.803770193935378], [-30.089869241924426, -18.76838163991335], [-30.050868055605502, -18.68147103199696], [-29.956346701516217, -18.57130632014934]]], [[[-19.476495564172538, 6.444121379256288], [-19.705478137167134, 6.787131761169626], [-19.815215510876346, 6.943255974343992], [-20.10888341300154, 7.1738116142587645], [-20.413732236691406, 7.045974727532536], [-20.723297810302366, 6.872775141795477], [-20.833464645344716, 6.567386439093909], [-20.912286588541956, 6.267446431844756], [-20.655448406112637, 6.0715942843372614], [-20.384940448290152, 5.776404503023004], [-20.11054897207005, 5.9248138433917275], [-19.838286283289104, 5.843055053039315], [-19.739447384241934, 6.143646495892716], [-19.476495564172538, 6.444121379256288]]]]}}, {"type": "Feature", "id": "a14", "properties": {"id": "a14", "name": "isle 14", "value": 433.1876}, "geometry": {"type": "MultiPolygon", "coordinates": [[[[37.75901478867906, -16.26139640484264], [37.86705459032689, -15.792137517560786], [37.454698925530096, -15.43408752203747], [37.16064709954355, -14.766055177562054], [36.898166023126315, -14.393559325389871], [36.50300315263383, -14.210339442246992], [36.12313463801246, -14.140503472122505], [35.570001426298944, -14.377774098602503], [35.285064374359386, -14.384614508383219], [34.973613317340686, -14.987098733563114], [34.4967302449801, -15.275709530540382], [34.38241426131368, -15.815777626218884], [34.26722228545101, -16.26139640484264], [34.51892402106438, -16.81364409411004], [34.360631135001526, -17.060385968678197], [34.64401467412472, -17.586146341597484], [35.34430731074291, -17.76726964990773], [35.68052375995004, -18.0461488506853], [36.12313463801246, -18.079707819524494], [36.62154607695283, -17.68632370294149], [37.16301908775326, -17.749032371659023], [37.52692346799354, -17.433327459715674], [37.64345820089805, -17.107106537161034], [37.59907999476867, -16.755689816009383], [37.75901478867906, -16.26139640484264]]], [[[12.839560520753853, 10.541322506079197], [13.098938202934027, 10.844682769407733], [12.663407510748971, 11.197942424647353], [12.50432023547528, 11.586490072629894], [12.416239721387656, 11.720857924615013], [11.986550491703069, 11.671866647882071], [11.657123908056157, 12.024571794479138], [11.298642399967914, 11.978015014181349], [10.921883321734123, 11.655769660049517], [10.708773897309687, 11.278434355661267], [10.752687224886209, 11.106847100027062], [10.33349594544813, 10.690332935876047], [10.521020260107537, 10.367297377195216], [10.451576508388541, 10.090982088278137], [10.777441823159169, 9.69789412991787], [10.896839385275767, 9.362693079943659], [11.235866038484508, 9.057877120178667], [11.63117522636834, 9.320631214079365], [12.034504114586346, 9.357841690544273], [12.393133760332763, 9.472691071830742], [12.706508795538726, 9.620551077212236], [12.67297973142907, 9.808198785864043], [12.988622540271997, 10.22146096990596], [12.839560520753853, 10.541322506079197]]]]}}, {"type": "Feature", "id": "a15", "properties": {"id": "a15", "name": "isle 15", "value": 432.467}, "geometry": {"type": "MultiPolygon", "coordinates": [[[[-7.329747360717484, 22.38500879211729], [-7.180200948823478, 22.6349268356216], [-7.350061658428494, 22.943407280410998], [-7.397173082958559, 23.18476531249917], [-7.735081081540449, 23.431278671468753], [-7.948168645872849, 23.522417698129203], [-8.257149591488087, 23.388408508808805], [-8.511796788978925, 23.256831240656453], [-8.887763745879637, 23.499365211229865], [-8.912871426476391, 23.17214838645416], [-9.057286639383776, 22.970181556933557], [-9.301100926906086, 22.64519842059394], [-9.562652637707867, 22.38500879211729], [-9.380613263052476, 22.116197541643807], [-9.064623563630644, 21.919358230378307], [-8.94178275214736, 21.48227766204717], [-8.879276938242134, 21.565458615158988], [-8.537545376129126, 21.427380698453256], [-8.257149591488087, 21.085936949352455], [-7.957625027675628, 21.458712936789727], [-7.8008565371922325, 21.30142001192464], [-7.365002466916125, 21.458037135881806], [-7.373325449284732, 21.776004927419944], [-7.002450877094384, 22.11807405961625], [-7.329747360717484, 22.38500879211729]]], [[[-8.336686932987355, -24.398240159210594], [-8.708483568803809, -22.650955291988154], [-10.571145324071658, -22.55665616706343], [-11.706645971366646, -23.699039477754184], [-11.87724780057891, -25.103551815564007], [-10.558868397878632, -25.881947647934158], [-8.835275067175669, -26.05424597129488], [-8.336686932987355, -24.398240159210594]]], [[[14.161198753944202, -25.788272872259352], [14.406927691296366, -24.66081082586382], [13.477022076047128, -24.22081761734977], [12.381662453816036, -24.00460664481121], [11.365950372477124, -23.655956199933787], [10.381888976164175, -24.11718174051831], [9.950853370080914, -25.191431778774778], [9.836572981226478, -26.24175667947012], [10.731612227029867, -27.442063646291814], [11.455312436932335, -27.78817045357911], [12.440487371109828, -27.7432799036875], [13.554172551079011, -27.403332610805542], [14.275118204520586, -26.968832542145815], [14.161198753944202, -25.788272872259352]]], [[[-12.10317206556686, 5.115574078868981], [-12.485787604620569, 5.691743915091058], [-12.85374805173428, 6.130427946965075], [-13.443499086943087, 6.203769624676674], [-13.835453538402929, 5.66503657124065], [-14.076262122193299, 5.115574078868981], [-13.921274444400208, 4.5221951181828794], [-13.410069509735465, 4.002620571014912], [-12.857195912481492, 4.3366551108653875], [-12.247514353934502, 4.410816101713217], [-12.10317206556686, 5.115574078868981]]]]}}, {"type": "Feature", "id": "a16", "properties": {"id": "a16", "name": "isle 16", "value": 356.4398}, "geometry": {"type": "MultiPolygon", "coordinates": [[[[38.37386306966026, 6.019415772126848], [37.36136611164341, 7.353763830282113], [35.74697487976295, 7.25978224522791], [34.95658124859646, 6.019415772126848], [35.89937852864214, 4.640361742368016], [37.39131822067049, 4.859466949899071], [38.37386306966026, 6.019415772126848]]], [[[2.6194153443654695, -7.655390331647787], [2.4285044677585743, -6.884798549034783], [1.9184978287489869, -6.348902344289842], [1.2332724300047317, -6.30485193246828], [0.3161624562187322, -6.944868889199674], [0.22255752449509125, -7.655390331647787], [0.6569909472994945, -8.427893969280241], [1.2030703071842617, -8.687785446243549], [2.0388438923482983, -9.085247105741379], [2.6354363020956537, -8.519327338632198], [2.6194153443654695, -7.655390331647787]]], [[[10.158975645469399, 16.2094247276099], [10.057430282819643, 16.805160893345956], [10.220277476087745, 17.11878531902237], [9.607252500837307, 17.706601240576656], [9.0606567987313, 18.256732605971198], [8.50277261541575, 18.07745200751986], [7.940765861275499, 18.041292048369947], [7.287346611405045, 17.574942486163096], [7.218958737790259, 17.319402190554456], [6.868519784851361, 16.85799609690552], [6.5259613279996, 16.2094247276099], [6.3959129923507465, 15.732401574682614], [6.820268294197698, 14.9012956267459], [7.2017735716312306, 14.718983569705122], [7.875838907703442, 14.608947836807424], [8.50277261541575, 13.984331964092688], [9.060157802661648, 14.75254261642802], [9.479771106212226, 14.581514511618073], [10.107917296222954, 15.21031871316037], [10.052392795744097, 15.561166052293064], [10.158975645469399, 16.2094247276099]]]]}}, {"type": "Feature", "id": "a17", "properties": {"id": "a17", "name": "isle 17", "value": 187.7522}, "geometry": {"type": "MultiPolygon", "coordinates": [[[[5.623372337024386, 22.744165444356284], [5.338278932622396, 23.099202316902236], [4.979169041818878, 23.184492298121615], [4.540154495587585, 23.110768574108288], [4.450695654605739, 22.744165444356284], [4.622835720251346, 22.35734004960529], [4.979169041818878, 22.221368651045168], [5.312698008901926, 22.374597924046125], [5.623372337024386, 22.744165444356284]]]]}}, {"type": "Feature", "id": "a18", "properties": {"id": "a18", "name": "isle 18", "value": 73.5188}, "geometry": {"type": "MultiPolygon", "coordinates": [[[[8.723926975952683, 29.845144951305592], [8.656826671004914, 30.08472455845137], [8.485632678096408, 30.132159235872322], [8.277693353700583, 30.176834201720418], [8.08247061756879, 30.07341259039513], [8.03408821387787, 29.845144951305592], [8.09076151262071, 29.632918808290803], [8.29275006698694, 29.487823980875564], [8.501113286917827, 29.48503957128424], [8.717274421798352, 29.629245633650317], [8.723926975952683, 29.845144951305592]]], [[[27.92646589663885, 18.964172225193764], [28.103446385782327, 19.874537730678824], [26.981068431145044, 21.06407022778064], [25.99853092895833, 20.799668981372314], [24.743471467124987, 21.01065635514839], [24.395864095456073, 20.080610739015842], [24.02709990997422, 18.964172225193764], [23.866965074854036, 17.650417671213834], [24.70023359912857, 17.403906896230126], [25.99853092895833, 16.510038293104206], [27.154448004277604, 17.00863482601214], [27.898617168045966, 17.826899418786116], [27.92646589663885, 18.964172225193764]]], [[[-4.995502696907763, -16.6304653050288], [-4.856871637442278, -15.908103406713062], [-5.740318774926138, -15.389459711864896], [-6.43494161834689, -15.159250790211601], [-7.105029360605234, -15.381144803413639], [-7.725472854334364, -15.678749371768147], [-8.32746880994385, -16.6304653050288], [-7.642488833372583, -17.298489185949737], [-7.387386388028577, -17.872250919632318], [-6.43494161834689, -18.053345779137697], [-5.68667241835966, -18.210686446366708], [-4.803238685938155, -17.288361596399465], [-4.995502696907763, -16.6304653050288]]]]}}, {"type": "Feature", "id": "a19", "properties": {"id": "a19", "name": "isle 19", "value": 162.9493}, "geometry": {"type": "MultiPolygon", "coordinates": [[[[-3.368217860019942, 1.1469764399174238], [-3.416441535064745, 1.27081503916095], [-3.484488237915773, 1.3525465068716835], [-3.492308727775184, 1.4225989230148197], [-3.5752416972270895, 1.558995919255612], [-3.7122983857907266, 1.641960979659395], [-3.8524246748422595, 1.642163483675692], [-3.9648474083931484, 1.607894968359673], [-4.070412550559447, 1.5186432842617024], [-4.209134361120331, 1.3764479506467224], [-4.25092751898245, 1.2546552527504848], [-4.156763762984437, 1.146976439917424], [-4.1726595684186725, 1.009259051584344], [-4.088258880585256, 0.9123015622559618], [-4.0323848216856195, 0.799882410278069], [-3.9875265096682555, 0.7556342249844306], [-3.8299896296676224, 0.7089486129467464], [-3.7167363226927463, 0.7437893273991623], [-3.5633428381260117, 0.6709016749255861], [-3.4366836375882457, 0.822417939667258], [-3.386686949109593, 0.9414755696974342], [-3.3452940759474368, 1.0162293810088425], [-3.368217860019942, 1.1469764399174238]]], [[[27.884129530994063, 11.538367222506992], [27.814300183302972, 12.110955375829304], [26.902970706531843, 12.844004900395266], [26.67639633569897, 12.99016062122993], [26.007856793632932, 13.786163917901296], [25.463075955717965, 13.430698136016774], [24.773443865738102, 13.578791567271404], [24.36577591885872, 13.45378551275496], [23.86270857760503, 13.37498207499618], [23.287379194030194, 12.591239459281939], [23.260994572987396, 12.299343491705153], [22.78216426019469, 11.538367222506993], [23.07170875139304, 10.783379417009261], [23.55967364007201, 10.104060215243795], [23.790024101673378, 9.458232894842526], [24.00373187318229, 9.75682907039487], [24.77278589105211, 9.208316517059517], [25.491738691498956, 9.328825087985384], [26.284138431989884, 9.053212919135802], [26.492322239439595, 9.702617895524076], [27.491898859718496, 10.039159727659912], [27.75997575231366, 10.990003436946346], [27.884129530994063, 11.538367222506992]]], [[[0.08834033403512587, -28.240610561456215], [0.0989608382775704, -27.75197935017371], [-0.6229587264533052, -27.07250994766908], [-1.1410743956693912, -27.047810804660656], [-1.8092565030436882, -27.497195276358543], [-2.1395155097487883, -27.89988473932709], [-1.9201573236858973, -28.496498894378952], [-1.5456154673714284, -29.01164478965297], [-1.1434810737752088, -29.515031500635835], [-0.5349660512598965, -29.111788014467127], [-0.012293024515950601, -28.723555387326364], [0.08834033403512587, -28.240610561456215]]], [[[36.36754209324991, -12.732372983559248], [35.44189477798966, -10.94054542504319], [33.11370458879968, -10.742097292825804], [31.865556487652746, -12.732372983559248], [33.45814064554242, -15.025903203120283], [35.78208018719652, -14.386833801932514], [36.36754209324991, -12.732372983559248]]]]}}]}