{"type": "FeatureCollection", "features": [{"type": "Feature", "id": "sliver", "properties": {"id": "sliver", "name": "sliver polygon", "value": 100}, "geometry": {"type": "Polygon", "coordinates": [[[0, 0], [10, 0], [10, 0.001], [0, 0.001], [0, 0]]]}}, {"type": "Feature", "id": "spiky", "properties": {"id": "spiky", "name": "spiky star", "value": 50}, "geometry": {"type": "Polygon", "coordinates": [[[0.3, 0.0], [2.9630650217854133, 0.46930339512069263], [0.285316954888546, 0.09270509831248422], [2.673019572565104, 1.3619714992186402], [0.2427050983124842, 0.17633557568774194], [2.121320343559643, 2.1213203435596424], [0.17633557568774194, 0.2427050983124842], [1.3619714992186405, 2.6730195725651034], [0.09270509831248423, 0.285316954888546], [0.46930339512069275, 2.9630650217854133], [1.8369701987210297e-17, 0.3], [-0.46930339512069175, 2.9630650217854133], [-0.0927050983124842, 0.2853169548885461], [-1.36197149921864, 2.673019572565104], [-0.1763355756877419, 0.2427050983124842], [-2.1213203435596424, 2.121320343559643], [-0.24270509831248419, 0.17633557568774197], [-2.6730195725651034, 1.3619714992186407], [-0.285316954888546, 0.09270509831248425], [-2.963065021785413, 0.46930339512069297], [-0.3, 3.6739403974420595e-17], [-2.9630650217854133, -0.4693033951206922], [-0.28531695488854614, -0.09270509831248407], [-2.673019572565104, -1.36197149921864], [-0.24270509831248427, -0.1763355756877419], [-2.121320343559643, -2.1213203435596424], [-0.17633557568774197, -0.24270509831248419], [-1.3619714992186407, -2.6730195725651034], [-0.09270509831248426, -0.285316954888546], [-0.4693033951206931, -2.963065021785413], [-5.510910596163089e-17, -0.3], [0.469303395120692, -2.9630650217854133], [0.09270509831248416, -0.2853169548885461], [1.3619714992186398, -2.673019572565104], [0.17633557568774186, -0.24270509831248427], [2.121320343559642, -2.121320343559643], [0.24270509831248419, -0.176335575687742], [2.6730195725651034, -1.361971499218641], [0.285316954888546, -0.09270509831248429], [2.963065021785413, -0.46930339512069336], [0.3, 0.0]]]}}, {"type": "Feature", "id": "dup", "properties": {"id": "dup", "name": "duplicate vertices", "value": 10}, "geometry": {"type": "Polygon", "coordinates": [[[20, 0], [20, 0], [24, 0], [24, 4], [24, 4], [20, 4], [20, 0]]]}}, {"type": "Feature", "id": "tiny", "properties": {"id": "tiny", "name": "tiny square with huge value", "value": 9999}, "geometry": {"type": "Polygon", "coordinates": [[[30, 0], [30.01, 0], [30.01, 0.01], [30, 0.01], [30, 0]]]}}, {"type": "Feature", "id": "zero", "properties": {"id": "zero", "name": "zero-valued region", "value": 0}, "geometry": {"type": "Polygon", "coordinates": [[[35, 0], [40, 0], [40, 5], [35, 5], [35, 0]]]}}, {"type": "Feature", "id": "missing", "properties": {"id": "missing", "name": "missing value", "value": null}, "geometry": {"type": "Polygon", "coordinates": [[[45, 0], [50, 0], [50, 5], [45, 5], [45, 0]]]}}, {"type": "Feature", "id": "negative", "properties": {"id": "negative", "name": "negative value", "value": -20}, "geometry": {"type": "Polygon", "coordinates": [[[55, 0], [60, 0], [60, 5], [55, 5], [55, 0]]]}}]}