{"type": "FeatureCollection", "features": [{"type": "Feature", "id": "c0-0", "properties": {"id": "c0-0", "name": "cell 0,0", "value": 500}, "geometry": {"type": "Polygon", "coordinates": [[[0, 0], [1, 0], [1, 1], [0, 1], [0, 0]]]}}, {"type": "Feature", "id": "c1-0", "properties": {"id": "c1-0", "name": "cell 1,0", "value": 1.2207}, "geometry": {"type": "Polygon", "coordinates": [[[1, 0], [2, 0], [2, 1], [1, 1], [1, 0]]]}}, {"type": "Feature", "id": "c2-0", "properties": {"id": "c2-0", "name": "cell 2,0", "value": 1.5763}, "geometry": {"type": "Polygon", "coordinates": [[[2, 0], [3, 0], [3, 1], [2, 1], [2, 0]]]}}, {"type": "Feature", "id": "c3-0", "properties": {"id": "c3-0", "name": "cell 3,0", "value": 2.0929}, "geometry": {"type": "Polygon", "coordinates": [[[3, 0], [4, 0], [4, 1], [3, 1], [3, 0]]]}}, {"type": "Feature", "id": "c4-0", "properties": {"id": "c4-0", "name": "cell 4,0", "value": 2.5051}, "geometry": {"type": "Polygon", "coordinates": [[[4, 0], [5, 0], [5, 1], [4, 1], [4, 0]]]}}, {"type": "Feature", "id": "c5-0", "properties": {"id": "c5-0", "name": "cell 5,0", "value": 2.5051}, "geometry": {"type": "Polygon", "coordinates": [[[5, 0], [6, 0], [6, 1], [5, 1], [5, 0]]]}}, {"type": "Feature", "id": "c6-0", "properties": {"id": "c6-0", "name": "cell 6,0", "value": 2.0929}, "geometry": {"type": "Polygon", "coordinates": [[[6, 0], [7, 0], [7, 1], [6, 1], [6, 0]]]}}, {"type": "Feature", "id": "c7-0", "properties": {"id": "c7-0", "name": "cell 7,0", "value": 1.5763}, "geometry": {"type": "Polygon", "coordinates": [[[7, 0], [8, 0], [8, 1], [7, 1], [7, 0]]]}}, {"type": "Feature", "id": "c8-0", "properties": {"id": "c8-0", "name": "cell 8,0", "value": 1.2207}, "geometry": {"type": "Polygon", "coordinates": [[[8, 0], [9, 0], [9, 1], [8, 1], [8, 0]]]}}, {"type": "Feature", "id": "c9-0", "properties": {"id": "c9-0", "name": "cell 9,0", "value": 1.0614}, "geometry": {"type": "Polygon", "coordinates": [[[9, 0], [10, 0], [10, 1], [9, 1], [9, 0]]]}}, {"type": "Feature", "id": "c0-1", "properties": {"id": "c0-1", "name": "cell 0,1", "value": 1.2207}, "geometry": {"type": "Polygon", "coordinates": [[[0, 1], [1, 1], [1, 2], [0, 2], [0, 1]]]}}, {"type": "Feature", "id": "c1-1", "properties": {"id": "c1-1", "name": "cell 1,1", "value": 1.7936}, "geometry": {"type": "Polygon", "coordinates": [[[1, 1], [2, 1], [2, 2], [1, 2], [1, 1]]]}}, {"type": "Feature", "id": "c2-1", "properties": {"id": "c2-1", "name": "cell 2,1", "value": 3.0728}, "geometry": {"type": "Polygon", "coordinates": [[[2, 1], [3, 1], [3, 2], [2, 2], [2, 1]]]}}, {"type": "Feature", "id": "c3-1", "properties": {"id": "c3-1", "name": "cell 3,1", "value": 4.9309}, "geometry": {"type": "Polygon", "coordinates": [[[3, 1], [4, 1], [4, 2], [3, 2], [3, 1]]]}}, {"type": "Feature", "id": "c4-1", "properties": {"id": "c4-1", "name": "cell 4,1", "value": 6.4134}, "geometry": {"type": "Polygon", "coordinates": [[[4, 1], [5, 1], [5, 2], [4, 2], [4, 1]]]}}, {"type": "Feature", "id": "c5-1", "properties": {"id": "c5-1", "name": "cell 5,1", "value": 6.4134}, "geometry": {"type": "Polygon", "coordinates": [[[5, 1], [6, 1], [6, 2], [5, 2], [5, 1]]]}}, {"type": "Feature", "id": "c6-1", "properties": {"id": "c6-1", "name": "cell 6,1", "value": 4.9309}, "geometry": {"type": "Polygon", "coordinates": [[[6, 1], [7, 1], [7, 2], [6, 2], [6, 1]]]}}, {"type": "Feature", "id": "c7-1", "properties": {"id": "c7-1", "name": "cell 7,1", "value": 3.0728}, "geometry": {"type": "Polygon", "coordinates": [[[7, 1], [8, 1], [8, 2], [7, 2], [7, 1]]]}}, {"type": "Feature", "id": "c8-1", "properties": {"id": "c8-1", "name": "cell 8,1", "value": 1.7936}, "geometry": {"type": "Polygon", "coordinates": [[[8, 1], [9, 1], [9, 2], [8, 2], [8, 1]]]}}, {"type": "Feature", "id": "c9-1", "properties": {"id": "c9-1", "name": "cell 9,1", "value": 1.2207}, "geometry": {"type": "Polygon", "coordinates": [[[9, 1], [10, 1], [10, 2], [9, 2], [9, 1]]]}}, {"type": "Feature", "id": "c0-2", "properties": {"id": "c0-2", "name": "cell 0,2", "value": 1.5763}, "geometry": {"type": "Polygon", "coordinates": [[[0, 2], [1, 2], [1, 3], [0, 3], [0, 2]]]}}, {"type": "Feature", "id": "c1-2", "properties": {"id": "c1-2", "name": "cell 1,2", "value": 3.0728}, "geometry": {"type": "Polygon", "coordinates": [[[1, 2], [2, 2], [2, 3], [1, 3], [1, 2]]]}}, {"type": "Feature", "id": "c2-2", "properties": {"id": "c2-2", "name": "cell 2,2", "value": 6.4134}, "geometry": {"type": "Polygon", "coordinates": [[[2, 2], [3, 2], [3, 3], [2, 3], [2, 2]]]}}, {"type": "Feature", "id": "c3-2", "properties": {"id": "c3-2", "name": "cell 3,2", "value": 11.2664}, "geometry": {"type": "Polygon", "coordinates": [[[3, 2], [4, 2], [4, 3], [3, 3], [3, 2]]]}}, {"type": "Feature", "id": "c4-2", "properties": {"id": "c4-2", "name": "cell 4,2", "value": 15.1382}, "geometry": {"type": "Polygon", "coordinates": [[[4, 2], [5, 2], [5, 3], [4, 3], [4, 2]]]}}, {"type": "Feature", "id": "c5-2", "properties": {"id": "c5-2", "name": "cell 5,2", "value": 15.1382}, "geometry": {"type": "Polygon", "coordinates": [[[5, 2], [6, 2], [6, 3], [5, 3], [5, 2]]]}}, {"type": "Feature", "id": "c6-2", "properties": {"id": "c6-2", "name": "cell 6,2", "value": 11.2664}, "geometry": {"type": "Polygon", "coordinates": [[[6, 2], [7, 2], [7, 3], [6, 3], [6, 2]]]}}, {"type": "Feature", "id": "c7-2", "properties": {"id": "c7-2", "name": "cell 7,2", "value": 6.4134}, "geometry": {"type": "Polygon", "coordinates": [[[7, 2], [8, 2], [8, 3], [7, 3], [7, 2]]]}}, {"type": "Feature", "id": "c8-2", "properties": {"id": "c8-2", "name": "cell 8,2", "value": 3.0728}, "geometry": {"type": "Polygon", "coordinates": [[[8, 2], [9, 2], [9, 3], [8, 3], [8, 2]]]}}, {"type": "Feature", "id": "c9-2", "properties": {"id": "c9-2", "name": "cell 9,2", "value": 1.5763}, "geometry": {"type": "Polygon", "coordinates": [[[9, 2], [10, 2], [10, 3], [9, 3], [9, 2]]]}}, {"type": "Feature", "id": "c0-3", "properties": {"id": "c0-3", "name": "cell 0,3", "value": 2.0929}, "geometry": {"type": "Polygon", "coordinates": [[[0, 3], [1, 3], [1, 4], [0, 4], [0, 3]]]}}, {"type": "Feature", "id": "c1-3", "properties": {"id": "c1-3", "name": "cell 1,3", "value": 4.9309}, "geometry": {"type": "Polygon", "coordinates": [[[1, 3], [2, 3], [2, 4], [1, 4], [1, 3]]]}}, {"type": "Feature", "id": "c2-3", "properties": {"id": "c2-3", "name": "cell 2,3", "value": 11.2664}, "geometry": {"type": "Polygon", "coordinates": [[[2, 3], [3, 3], [3, 4], [2, 4], [2, 3]]]}}, {"type": "Feature", "id": "c3-3", "properties": {"id": "c3-3", "name": "cell 3,3", "value": 20.4701}, "geometry": {"type": "Polygon", "coordinates": [[[3, 3], [4, 3], [4, 4], [3, 4], [3, 3]]]}}, {"type": "Feature", "id": "c4-3", "properties": {"id": "c4-3", "name": "cell 4,3", "value": 27.8128}, "geometry": {"type": "Polygon", "coordinates": [[[4, 3], [5, 3], [5, 4], [4, 4], [4, 3]]]}}, {"type": "Feature", "id": "c5-3", "properties": {"id": "c5-3", "name": "cell 5,3", "value": 27.8128}, "geometry": {"type": "Polygon", "coordinates": [[[5, 3], [6, 3], [6, 4], [5, 4], [5, 3]]]}}, {"type": "Feature", "id": "c6-3", "properties": {"id": "c6-3", "name": "cell 6,3", "value": 20.4701}, "geometry": {"type": "Polygon", "coordinates": [[[6, 3], [7, 3], [7, 4], [6, 4], [6, 3]]]}}, {"type": "Feature", "id": "c7-3", "properties": {"id": "c7-3", "name": "cell 7,3", "value": 11.2664}, "geometry": {"type": "Polygon", "coordinates": [[[7, 3], [8, 3], [8, 4], [7, 4], [7, 3]]]}}, {"type": "Feature", "id": "c8-3", "properties": {"id": "c8-3", "name": "cell 8,3", "value": 4.9309}, "geometry": {"type": "Polygon", "coordinates": [[[8, 3], [9, 3], [9, 4], [8, 4], [8, 3]]]}}, {"type": "Feature", "id": "c9-3", "properties": {"id": "c9-3", "name": "cell 9,3", "value": 2.0929}, "geometry": {"type": "Polygon", "coordinates": [[[9, 3], [10, 3], [10, 4], [9, 4], [9, 3]]]}}, {"type": "Feature", "id": "c0-4", "properties": {"id": "c0-4", "name": "cell 0,4", "value": 2.5051}, "geometry": {"type": "Polygon", "coordinates": [[[0, 4], [1, 4], [1, 5], [0, 5], [0, 4]]]}}, {"type": "Feature", "id": "c1-4", "properties": {"id": "c1-4", "name": "cell 1,4", "value": 6.4134}, "geometry": {"type": "Polygon", "coordinates": [[[1, 4], [2, 4], [2, 5], [1, 5], [1, 4]]]}}, {"type": "Feature", "id": "c2-4", "properties": {"id": "c2-4", "name": "cell 2,4", "value": 15.1382}, "geometry": {"type": "Polygon", "coordinates": [[[2, 4], [3, 4], [3, 5], [2, 5], [2, 4]]]}}, {"type": "Feature", "id": "c3-4", "properties": {"id": "c3-4", "name": "cell 3,4", "value": 27.8128}, "geometry": {"type": "Polygon", "coordinates": [[[3, 4], [4, 4], [4, 5], [3, 5], [3, 4]]]}}, {"type": "Feature", "id": "c4-4", "properties": {"id": "c4-4", "name": "cell 4,4", "value": 37.9247}, "geometry": {"type": "Polygon", "coordinates": [[[4, 4], [5, 4], [5, 5], [4, 5], [4, 4]]]}}, {"type": "Feature", "id": "c5-4", "properties": {"id": "c5-4", "name": "cell 5,4", "value": 37.9247}, "geometry": {"type": "Polygon", "coordinates": [[[5, 4], [6, 4], [6, 5], [5, 5], [5, 4]]]}}, {"type": "Feature", "id": "c6-4", "properties": {"id": "c6-4", "name": "cell 6,4", "value": 27.8128}, "geometry": {"type": "Polygon", "coordinates": [[[6, 4], [7, 4], [7, 5], [6, 5], [6, 4]]]}}, {"type": "Feature", "id": "c7-4", "properties": {"id": "c7-4", "name": "cell 7,4", "value": 15.1382}, "geometry": {"type": "Polygon", "coordinates": [[[7, 4], [8, 4], [8, 5], [7, 5], [7, 4]]]}}, {"type": "Feature", "id": "c8-4", "properties": {"id": "c8-4", "name": "cell 8,4", "value": 6.4134}, "geometry": {"type": "Polygon", "coordinates": [[[8, 4], [9, 4], [9, 5], [8, 5], [8, 4]]]}}, {"type": "Feature", "id": "c9-4", "properties": {"id": "c9-4", "name": "cell 9,4", "value": 2.5051}, "geometry": {"type": "Polygon", "coordinates": [[[9, 4], [10, 4], [10, 5], [9, 5], [9, 4]]]}}, {"type": "Feature", "id": "c0-5", "properties": {"id": "c0-5", "name": "cell 0,5", "value": 2.5051}, "geometry": {"type": "Polygon", "coordinates": [[[0, 5], [1, 5], [1, 6], [0, 6], [0, 5]]]}}, {"type": "Feature", "id": "c1-5", "properties": {"id": "c1-5", "name": "cell 1,5", "value": 6.4134}, "geometry": {"type": "Polygon", "coordinates": [[[1, 5], [2, 5], [2, 6], [1, 6], [1, 5]]]}}, {"type": "Feature", "id": "c2-5", "properties": {"id": "c2-5", "name": "cell 2,5", "value": 15.1382}, "geometry": {"type": "Polygon", "coordinates": [[[2, 5], [3, 5], [3, 6], [2, 6], [2, 5]]]}}, {"type": "Feature", "id": "c3-5", "properties": {"id": "c3-5", "name": "cell 3,5", "value": 27.8128}, "geometry": {"type": "Polygon", "coordinates": [[[3, 5], [4, 5], [4, 6], [3, 6], [3, 5]]]}}, {"type": "Feature", "id": "c4-5", "properties": {"id": "c4-5", "name": "cell 4,5", "value": 37.9247}, "geometry": {"type": "Polygon", "coordinates": [[[4, 5], [5, 5], [5, 6], [4, 6], [4, 5]]]}}, {"type": "Feature", "id": "c5-5", "properties": {"id": "c5-5", "name": "cell 5,5", "value": 37.9247}, "geometry": {"type": "Polygon", "coordinates": [[[5, 5], [6, 5], [6, 6], [5, 6], [5, 5]]]}}, {"type": "Feature", "id": "c6-5", "properties": {"id": "c6-5", "name": "cell 6,5", "value": 27.8128}, "geometry": {"type": "Polygon", "coordinates": [[[6, 5], [7, 5], [7, 6], [6, 6], [6, 5]]]}}, {"type": "Feature", "id": "c7-5", "properties": {"id": "c7-5", "name": "cell 7,5", "value": 15.1382}, "geometry": {"type": "Polygon", "coordinates": [[[7, 5], [8, 5], [8, 6], [7, 6], [7, 5]]]}}, {"type": "Feature", "id": "c8-5", "properties": {"id": "c8-5", "name": "cell 8,5", "value": 6.4134}, "geometry": {"type": "Polygon", "coordinates": [[[8, 5], [9, 5], [9, 6], [8, 6], [8, 5]]]}}, {"type": "Feature", "id": "c9-5", "properties": {"id": "c9-5", "name": "cell 9,5", "value": 2.5051}, "geometry": {"type": "Polygon", "coordinates": [[[9, 5], [10, 5], [10, 6], [9, 6], [9, 5]]]}}, {"type": "Feature", "id": "c0-6", "properties": {"id": "c0-6", "name": "cell 0,6", "value": 2.0929}, "geometry": {"type": "Polygon", "coordinates": [[[0, 6], [1, 6], [1, 7], [0, 7], [0, 6]]]}}, {"type": "Feature", "id": "c1-6", "properties": {"id": "c1-6", "name": "cell 1,6", "value": 4.9309}, "geometry": {"type": "Polygon", "coordinates": [[[1, 6], [2, 6], [2, 7], [1, 7], [1, 6]]]}}, {"type": "Feature", "id": "c2-6", "properties": {"id": "c2-6", "name": "cell 2,6", "value": 11.2664}, "geometry": {"type": "Polygon", "coordinates": [[[2, 6], [3, 6], [3, 7], [2, 7], [2, 6]]]}}, {"type": "Feature", "id": "c3-6", "properties": {"id": "c3-6", "name": "cell 3,6", "value": 20.4701}, "geometry": {"type": "Polygon", "coordinates": [[[3, 6], [4, 6], [4, 7], [3, 7], [3, 6]]]}}, {"type": "Feature", "id": "c4-6", "properties": {"id": "c4-6", "name": "cell 4,6", "value": 27.8128}, "geometry": {"type": "Polygon", "coordinates": [[[4, 6], [5, 6], [5, 7], [4, 7], [4, 6]]]}}, {"type": "Feature", "id": "c5-6", "properties": {"id": "c5-6", "name": "cell 5,6", "value": 27.8128}, "geometry": {"type": "Polygon", "coordinates": [[[5, 6], [6, 6], [6, 7], [5, 7], [5, 6]]]}}, {"type": "Feature", "id": "c6-6", "properties": {"id": "c6-6", "name": "cell 6,6", "value": 20.4701}, "geometry": {"type": "Polygon", "coordinates": [[[6, 6], [7, 6], [7, 7], [6, 7], [6, 6]]]}}, {"type": "Feature", "id": "c7-6", "properties": {"id": "c7-6", "name": "cell 7,6", "value": 11.2664}, "geometry": {"type": "Polygon", "coordinates": [[[7, 6], [8, 6], [8, 7], [7, 7], [7, 6]]]}}, {"type": "Feature", "id": "c8-6", "properties": {"id": "c8-6", "name": "cell 8,6", "value": 4.9309}, "geometry": {"type": "Polygon", "coordinates": [[[8, 6], [9, 6], [9, 7], [8, 7], [8, 6]]]}}, {"type": "Feature", "id": "c9-6", "properties": {"id": "c9-6", "name": "cell 9,6", "value": 2.0929}, "geometry": {"type": "Polygon", "coordinates": [[[9, 6], [10, 6], [10, 7], [9, 7], [9, 6]]]}}, {"type": "Feature", "id": "c0-7", "properties": {"id": "c0-7", "name": "cell 0,7", "value": 1.5763}, "geometry": {"type": "Polygon", "coordinates": [[[0, 7], [1, 7], [1, 8], [0, 8], [0, 7]]]}}, {"type": "Feature", "id": "c1-7", "properties": {"id": "c1-7", "name": "cell 1,7", "value": 3.0728}, "geometry": {"type": "Polygon", "coordinates": [[[1, 7], [2, 7], [2, 8], [1, 8], [1, 7]]]}}, {"type": "Feature", "id": "c2-7", "properties": {"id": "c2-7", "name": "cell 2,7", "value": 6.4134}, "geometry": {"type": "Polygon", "coordinates": [[[2, 7], [3, 7], [3, 8], [2, 8], [2, 7]]]}}, {"type": "Feature", "id": "c3-7", "properties": {"id": "c3-7", "name": "cell 3,7", "value": 11.2664}, "geometry": {"type": "Polygon", "coordinates": [[[3, 7], [4, 7], [4, 8], [3, 8], [3, 7]]]}}, {"type": "Feature", "id": "c4-7", "properties": {"id": "c4-7", "name": "cell 4,7", "value": 15.1382}, "geometry": {"type": "Polygon", "coordinates": [[[4, 7], [5, 7], [5, 8], [4, 8], [4, 7]]]}}, {"type": "Feature", "id": "c5-7", "properties": {"id": "c5-7", "name": "cell 5,7", "value": 15.1382}, "geometry": {"type": "Polygon", "coordinates": [[[5, 7], [6, 7], [6, 8], [5, 8], [5, 7]]]}}, {"type": "Feature", "id": "c6-7", "properties": {"id": "c6-7", "name": "cell 6,7", "value": 11.2664}, "geometry": {"type": "Polygon", "coordinates": [[[6, 7], [7, 7], [7, 8], [6, 8], [6, 7]]]}}, {"type": "Feature", "id": "c7-7", "properties": {"id": "c7-7", "name": "cell 7,7", "value": 6.4134}, "geometry": {"type": "Polygon", "coordinates": [[[7, 7], [8, 7], [8, 8], [7, 8], [7, 7]]]}}, {"type": "Feature", "id": "c8-7", "properties": {"id": "c8-7", "name": "cell 8,7", "value": 3.0728}, "geometry": {"type": "Polygon", "coordinates": [[[8, 7], [9, 7], [9, 8], [8, 8], [8, 7]]]}}, {"type": "Feature", "id": "c9-7", "properties": {"id": "c9-7", "name": "cell 9,7", "value": 1.5763}, "geometry": {"type": "Polygon", "coordinates": [[[9, 7], [10, 7], [10, 8], [9, 8], [9, 7]]]}}, {"type": "Feature", "id": "c0-8", "properties": {"id": "c0-8", "name": "cell 0,8", "value": 1.2207}, "geometry": {"type": "Polygon", "coordinates": [[[0, 8], [1, 8], [1, 9], [0, 9], [0, 8]]]}}, {"type": "Feature", "id": "c1-8", "properties": {"id": "c1-8", "name": "cell 1,8", "value": 1.7936}, "geometry": {"type": "Polygon", "coordinates": [[[1, 8], [2, 8], [2, 9], [1, 9], [1, 8]]]}}, {"type": "Feature", "id": "c2-8", "properties": {"id": "c2-8", "name": "cell 2,8", "value": 3.0728}, "geometry": {"type": "Polygon", "coordinates": [[[2, 8], [3, 8], [3, 9], [2, 9], [2, 8]]]}}, {"type": "Feature", "id": "c3-8", "properties": {"id": "c3-8", "name": "cell 3,8", "value": 4.9309}, "geometry": {"type": "Polygon", "coordinates": [[[3, 8], [4, 8], [4, 9], [3, 9], [3, 8]]]}}, {"type": "Feature", "id": "c4-8", "properties": {"id": "c4-8", "name": "cell 4,8", "value": 6.4134}, "geometry": {"type": "Polygon", "coordinates": [[[4, 8], [5, 8], [5, 9], [4, 9], [4, 8]]]}}, {"type": "Feature", "id": "c5-8", "properties": {"id": "c5-8", "name": "cell 5,8", "value": 6.4134}, "geometry": {"type": "Polygon", "coordinates": [[[5, 8], [6, 8], [6, 9], [5, 9], [5, 8]]]}}, {"type": "Feature", "id": "c6-8", "properties": {"id": "c6-8", "name": "cell 6,8", "value": 4.9309}, "geometry": {"type": "Polygon", "coordinates": [[[6, 8], [7, 8], [7, 9], [6, 9], [6, 8]]]}}, {"type": "Feature", "id": "c7-8", "properties": {"id": "c7-8", "name": "cell 7,8", "value": 3.0728}, "geometry": {"type": "Polygon", "coordinates": [[[7, 8], [8, 8], [8, 9], [7, 9], [7, 8]]]}}, {"type": "Feature", "id": "c8-8", "properties": {"id": "c8-8", "name": "cell 8,8", "value": 1.7936}, "geometry": {"type": "Polygon", "coordinates": [[[8, 8], [9, 8], [9, 9], [8, 9], [8, 8]]]}}, {"type": "Feature", "id": "c9-8", "properties": {"id": "c9-8", "name": "cell 9,8", "value": 1.2207}, "geometry": {"type": "Polygon", "coordinates": [[[9, 8], [10, 8], [10, 9], [9, 9], [9, 8]]]}}, {"type": "Feature", "id": "c0-9", "properties": {"id": "c0-9", "name": "cell 0,9", "value": 1.0614}, "geometry": {"type": "Polygon", "coordinates": [[[0, 9], [1, 9], [1, 10], [0, 10], [0, 9]]]}}, {"type": "Feature", "id": "c1-9", "properties": {"id": "c1-9", "name": "cell 1,9", "value": 1.2207}, "geometry": {"type": "Polygon", "coordinates": [[[1, 9], [2, 9], [2, 10], [1, 10], [1, 9]]]}}, {"type": "Feature", "id": "c2-9", "properties": {"id": "c2-9", "name": "cell 2,9", "value": 1.5763}, "geometry": {"type": "Polygon", "coordinates": [[[2, 9], [3, 9], [3, 10], [2, 10], [2, 9]]]}}, {"type": "Feature", "id": "c3-9", "properties": {"id": "c3-9", "name": "cell 3,9", "value": 2.0929}, "geometry": {"type": "Polygon", "coordinates": [[[3, 9], [4, 9], [4, 10], [3, 10], [3, 9]]]}}, {"type": "Feature", "id": "c4-9", "properties": {"id": "c4-9", "name": "cell 4,9", "value": 2.5051}, "geometry": {"type": "Polygon", "coordinates": [[[4, 9], [5, 9], [5, 10], [4, 10], [4, 9]]]}}, {"type": "Feature", "id": "c5-9", "properties": {"id": "c5-9", "name": "cell 5,9", "value": 2.5051}, "geometry": {"type": "Polygon", "coordinates": [[[5, 9], [6, 9], [6, 10], [5, 10], [5, 9]]]}}, {"type": "Feature", "id": "c6-9", "properties": {"id": "c6-9", "name": "cell 6,9", "value": 2.0929}, "geometry": {"type": "Polygon", "coordinates": [[[6, 9], [7, 9], [7, 10], [6, 10], [6, 9]]]}}, {"type": "Feature", "id": "c7-9", "properties": {"id": "c7-9", "name": "cell 7,9", "value": 1.5763}, "geometry": {"type": "Polygon", "coordinates": [[[7, 9], [8, 9], [8, 10], [7, 10], [7, 9]]]}}, {"type": "Feature", "id": "c8-9", "properties": {"id": "c8-9", "name": "cell 8,9", "value": 1.2207}, "geometry": {"type": "Polygon", "coordinates": [[[8, 9], [9, 9], [9, 10], [8, 10], [8, 9]]]}}, {"type": "Feature", "id": "c9-9", "properties": {"id": "c9-9", "name": "cell 9,9", "value": 1.0614}, "geometry": {"type": "Polygon", "coordinates": [[[9, 9], [10, 9], [10, 10], [9, 10], [9, 9]]]}}]}