{"type": "FeatureCollection", "features": [{"type": "Feature", "id": "c0-0", "properties": {"id": "c0-0", "name": "cell 0,0", "value": 500}, "geometry": {"type": "Polygon", "coordinates": [[[0, 0], [1, 0], [1, 1], [0, 1], [0, 0]]]}}, {"type": "Feature", "id": "c1-0", "properties": {"id": "c1-0", "name": "cell 1,0", "value": 2.6305}, "geometry": {"type": "Polygon", "coordinates": [[[1, 0], [2, 0], [2, 1], [1, 1], [1, 0]]]}}, {"type": "Feature", "id": "c2-0", "properties": {"id": "c2-0", "name": "cell 2,0", "value": 4.0922}, "geometry": {"type": "Polygon", "coordinates": [[[2, 0], [3, 0], [3, 1], [2, 1], [2, 0]]]}}, {"type": "Feature", "id": "c3-0", "properties": {"id": "c3-0", "name": "cell 3,0", "value": 2.6305}, "geometry": {"type": "Polygon", "coordinates": [[[3, 0], [4, 0], [4, 1], [3, 1], [3, 0]]]}}, {"type": "Feature", "id": "c4-0", "properties": {"id": "c4-0", "name": "cell 4,0", "value": 1.239}, "geometry": {"type": "Polygon", "coordinates": [[[4, 0], [5, 0], [5, 1], [4, 1], [4, 0]]]}}, {"type": "Feature", "id": "c0-1", "properties": {"id": "c0-1", "name": "cell 0,1", "value": 2.6305}, "geometry": {"type": "Polygon", "coordinates": [[[0, 1], [1, 1], [1, 2], [0, 2], [0, 1]]]}}, {"type": "Feature", "id": "c1-1", "properties": {"id": "c1-1", "name": "cell 1,1", "value": 12.1215}, "geometry": {"type": "Polygon", "coordinates": [[[1, 1], [2, 1], [2, 2], [1, 2], [1, 1]]]}}, {"type": "Feature", "id": "c2-1", "properties": {"id": "c2-1", "name": "cell 2,1", "value": 22.0917}, "geometry": {"type": "Polygon", "coordinates": [[[2, 1], [3, 1], [3, 2], [2, 2], [2, 1]]]}}, {"type": "Feature", "id": "c3-1", "properties": {"id": "c3-1", "name": "cell 3,1", "value": 12.1215}, "geometry": {"type": "Polygon", "coordinates": [[[3, 1], [4, 1], [4, 2], [3, 2], [3, 1]]]}}, {"type": "Feature", "id": "c4-1", "properties": {"id": "c4-1", "name": "cell 4,1", "value": 2.6305}, "geometry": {"type": "Polygon", "coordinates": [[[4, 1], [5, 1], [5, 2], [4, 2], [4, 1]]]}}, {"type": "Feature", "id": "c0-2", "properties": {"id": "c0-2", "name": "cell 0,2", "value": 4.0922}, "geometry": {"type": "Polygon", "coordinates": [[[0, 2], [1, 2], [1, 3], [0, 3], [0, 2]]]}}, {"type": "Feature", "id": "c1-2", "properties": {"id": "c1-2", "name": "cell 1,2", "value": 22.0917}, "geometry": {"type": "Polygon", "coordinates": [[[1, 2], [2, 2], [2, 3], [1, 3], [1, 2]]]}}, {"type": "Feature", "id": "c2-2", "properties": {"id": "c2-2", "name": "cell 2,2", "value": 41.0}, "geometry": {"type": "Polygon", "coordinates": [[[2, 2], [3, 2], [3, 3], [2, 3], [2, 2]]]}}, {"type": "Feature", "id": "c3-2", "properties": {"id": "c3-2", "name": "cell 3,2", "value": 22.0917}, "geometry": {"type": "Polygon", "coordinates": [[[3, 2], [4, 2], [4, 3], [3, 3], [3, 2]]]}}, {"type": "Feature", "id": "c4-2", "properties": {"id": "c4-2", "name": "cell 4,2", "value": 4.0922}, "geometry": {"type": "Polygon", "coordinates": [[[4, 2], [5, 2], [5, 3], [4, 3], [4, 2]]]}}, {"type": "Feature", "id": "c0-3", "properties": {"id": "c0-3", "name": "cell 0,3", "value": 2.6305}, "geometry": {"type": "Polygon", "coordinates": [[[0, 3], [1, 3], [1, 4], [0, 4], [0, 3]]]}}, {"type": "Feature", "id": "c1-3", "properties": {"id": "c1-3", "name": "cell 1,3", "value": 12.1215}, "geometry": {"type": "Polygon", "coordinates": [[[1, 3], [2, 3], [2, 4], [1, 4], [1, 3]]]}}, {"type": "Feature", "id": "c2-3", "properties": {"id": "c2-3", "name": "cell 2,3", "value": 22.0917}, "geometry": {"type": "Polygon", "coordinates": [[[2, 3], [3, 3], [3, 4], [2, 4], [2, 3]]]}}, {"type": "Feature", "id": "c3-3", "properties": {"id": "c3-3", "name": "cell 3,3", "value": 12.1215}, "geometry": {"type": "Polygon", "coordinates": [[[3, 3], [4, 3], [4, 4], [3, 4], [3, 3]]]}}, {"type": "Feature", "id": "c4-3", "properties": {"id": "c4-3", "name": "cell 4,3", "value": 2.6305}, "geometry": {"type": "Polygon", "coordinates": [[[4, 3], [5, 3], [5, 4], [4, 4], [4, 3]]]}}, {"type": "Feature", "id": "c0-4", "properties": {"id": "c0-4", "name": "cell 0,4", "value": 1.239}, "geometry": {"type": "Polygon", "coordinates": [[[0, 4], [1, 4], [1, 5], [0, 5], [0, 4]]]}}, {"type": "Feature", "id": "c1-4", "properties": {"id": "c1-4", "name": "cell 1,4", "value": 2.6305}, "geometry": {"type": "Polygon", "coordinates": [[[1, 4], [2, 4], [2, 5], [1, 5], [1, 4]]]}}, {"type": "Feature", "id": "c2-4", "properties": {"id": "c2-4", "name": "cell 2,4", "value": 4.0922}, "geometry": {"type": "Polygon", "coordinates": [[[2, 4], [3, 4], [3, 5], [2, 5], [2, 4]]]}}, {"type": "Feature", "id": "c3-4", "properties": {"id": "c3-4", "name": "cell 3,4", "value": 2.6305}, "geometry": {"type": "Polygon", "coordinates": [[[3, 4], [4, 4], [4, 5], [3, 5], [3, 4]]]}}, {"type": "Feature", "id": "c4-4", "properties": {"id": "c4-4", "name": "cell 4,4", "value": 1.239}, "geometry": {"type": "Polygon", "coordinates": [[[4, 4], [5, 4], [5, 5], [4, 5], [4, 4]]]}}]}