{"type": "FeatureCollection", "features": [{"type": "Feature", "id": "c0-0", "properties": {"id": "c0-0", "name": "cell 0,0", "value": 500}, "geometry": {"type": "Polygon", "coordinates": [[[0.0, 0.0], [0.125, 0.0], [0.25, 0.0], [0.375, 0.0], [0.5, 0.0], [0.625, 0.0], [0.75, 0.0], [0.875, 0.0], [1.0, 0.0], [1.0, 0.125], [1.0, 0.25], [1.0, 0.375], [1.0, 0.5], [1.0, 0.625], [1.0, 0.75], [1.0, 0.875], [1.0, 1.0], [0.875, 1.0], [0.75, 1.0], [0.625, 1.0], [0.5, 1.0], [0.375, 1.0], [0.25, 1.0], [0.125, 1.0], [0.0, 1.0], [0.0, 0.875], [0.0, 0.75], [0.0, 0.625], [0.0, 0.5], [0.0, 0.375], [0.0, 0.25], [0.0, 0.125], [0, 0]]]}}, {"type": "Feature", "id": "c1-0", "properties": {"id": "c1-0", "name": "cell 1,0", "value": 2.6305}, "geometry": {"type": "Polygon", "coordinates": [[[1.0, 0.0], [1.125, 0.0], [1.25, 0.0], [1.375, 0.0], [1.5, 0.0], [1.625, 0.0], [1.75, 0.0], [1.875, 0.0], [2.0, 0.0], [2.0, 0.125], [2.0, 0.25], [2.0, 0.375], [2.0, 0.5], [2.0, 0.625], [2.0, 0.75], [2.0, 0.875], [2.0, 1.0], [1.875, 1.0], [1.75, 1.0], [1.625, 1.0], [1.5, 1.0], [1.375, 1.0], [1.25, 1.0], [1.125, 1.0], [1.0, 1.0], [1.0, 0.875], [1.0, 0.75], [1.0, 0.625], [1.0, 0.5], [1.0, 0.375], [1.0, 0.25], [1.0, 0.125], [1, 0]]]}}, {"type": "Feature", "id": "c2-0", "properties": {"id": "c2-0", "name": "cell 2,0", "value": 4.0922}, "geometry": {"type": "Polygon", "coordinates": [[[2.0, 0.0], [2.125, 0.0], [2.25, 0.0], [2.375, 0.0], [2.5, 0.0], [2.625, 0.0], [2.75, 0.0], [2.875, 0.0], [3.0, 0.0], [3.0, 0.125], [3.0, 0.25], [3.0, 0.375], [3.0, 0.5], [3.0, 0.625], [3.0, 0.75], [3.0, 0.875], [3.0, 1.0], [2.875, 1.0], [2.75, 1.0], [2.625, 1.0], [2.5, 1.0], [2.375, 1.0], [2.25, 1.0], [2.125, 1.0], [2.0, 1.0], [2.0, 0.875], [2.0, 0.75], [2.0, 0.625], [2.0, 0.5], [2.0, 0.375], [2.0, 0.25], [2.0, 0.125], [2, 0]]]}}, {"type": "Feature", "id": "c3-0", "properties": {"id": "c3-0", "name": "cell 3,0", "value": 2.6305}, "geometry": {"type": "Polygon", "coordinates": [[[3.0, 0.0], [3.125, 0.0], [3.25, 0.0], [3.375, 0.0], [3.5, 0.0], [3.625, 0.0], [3.75, 0.0], [3.875, 0.0], [4.0, 0.0], [4.0, 0.125], [4.0, 0.25], [4.0, 0.375], [4.0, 0.5], [4.0, 0.625], [4.0, 0.75], [4.0, 0.875], [4.0, 1.0], [3.875, 1.0], [3.75, 1.0], [3.625, 1.0], [3.5, 1.0], [3.375, 1.0], [3.25, 1.0], [3.125, 1.0], [3.0, 1.0], [3.0, 0.875], [3.0, 0.75], [3.0, 0.625], [3.0, 0.5], [3.0, 0.375], [3.0, 0.25], [3.0, 0.125], [3, 0]]]}}, {"type": "Feature", "id": "c4-0", "properties": {"id": "c4-0", "name": "cell 4,0", "value": 1.239}, "geometry": {"type": "Polygon", "coordinates": [[[4.0, 0.0], [4.125, 0.0], [4.25, 0.0], [4.375, 0.0], [4.5, 0.0], [4.625, 0.0], [4.75, 0.0], [4.875, 0.0], [5.0, 0.0], [5.0, 0.125], [5.0, 0.25], [5.0, 0.375], [5.0, 0.5], [5.0, 0.625], [5.0, 0.75], [5.0, 0.875], [5.0, 1.0], [4.875, 1.0], [4.75, 1.0], [4.625, 1.0], [4.5, 1.0], [4.375, 1.0], [4.25, 1.0], [4.125, 1.0], [4.0, 1.0], [4.0, 0.875], [4.0, 0.75], [4.0, 0.625], [4.0, 0.5], [4.0, 0.375], [4.0, 0.25], [4.0, 0.125], [4, 0]]]}}, {"type": "Feature", "id": "c0-1", "properties": {"id": "c0-1", "name": "cell 0,1", "value": 2.6305}, "geometry": {"type": "Polygon", "coordinates": [[[0.0, 1.0], [0.125, 1.0], [0.25, 1.0], [0.375, 1.0], [0.5, 1.0], [0.625, 1.0], [0.75, 1.0], [0.875, 1.0], [1.0, 1.0], [1.0, 1.125], [1.0, 1.25], [1.0, 1.375], [1.0, 1.5], [1.0, 1.625], [1.0, 1.75], [1.0, 1.875], [1.0, 2.0], [0.875, 2.0], [0.75, 2.0], [0.625, 2.0], [0.5, 2.0], [0.375, 2.0], [0.25, 2.0], [0.125, 2.0], [0.0, 2.0], [0.0, 1.875], [0.0, 1.75], [0.0, 1.625], [0.0, 1.5], [0.0, 1.375], [0.0, 1.25], [0.0, 1.125], [0, 1]]]}}, {"type": "Feature", "id": "c1-1", "properties": {"id": "c1-1", "name": "cell 1,1", "value": 12.1215}, "geometry": {"type": "Polygon", "coordinates": [[[1.0, 1.0], [1.125, 1.0], [1.25, 1.0], [1.375, 1.0], [1.5, 1.0], [1.625, 1.0], [1.75, 1.0], [1.875, 1.0], [2.0, 1.0], [2.0, 1.125], [2.0, 1.25], [2.0, 1.375], [2.0, 1.5], [2.0, 1.625], [2.0, 1.75], [2.0, 1.875], [2.0, 2.0], [1.875, 2.0], [1.75, 2.0], [1.625, 2.0], [1.5, 2.0], [1.375, 2.0], [1.25, 2.0], [1.125, 2.0], [1.0, 2.0], [1.0, 1.875], [1.0, 1.75], [1.0, 1.625], [1.0, 1.5], [1.0, 1.375], [1.0, 1.25], [1.0, 1.125], [1, 1]]]}}, {"type": "Feature", "id": "c2-1", "properties": {"id": "c2-1", "name": "cell 2,1", "value": 22.0917}, "geometry": {"type": "Polygon", "coordinates": [[[2.0, 1.0], [2.125, 1.0], [2.25, 1.0], [2.375, 1.0], [2.5, 1.0], [2.625, 1.0], [2.75, 1.0], [2.875, 1.0], [3.0, 1.0], [3.0, 1.125], [3.0, 1.25], [3.0, 1.375], [3.0, 1.5], [3.0, 1.625], [3.0, 1.75], [3.0, 1.875], [3.0, 2.0], [2.875, 2.0], [2.75, 2.0], [2.625, 2.0], [2.5, 2.0], [2.375, 2.0], [2.25, 2.0], [2.125, 2.0], [2.0, 2.0], [2.0, 1.875], [2.0, 1.75], [2.0, 1.625], [2.0, 1.5], [2.0, 1.375], [2.0, 1.25], [2.0, 1.125], [2, 1]]]}}, {"type": "Feature", "id": "c3-1", "properties": {"id": "c3-1", "name": "cell 3,1", "value": 12.1215}, "geometry": {"type": "Polygon", "coordinates": [[[3.0, 1.0], [3.125, 1.0], [3.25, 1.0], [3.375, 1.0], [3.5, 1.0], [3.625, 1.0], [3.75, 1.0], [3.875, 1.0], [4.0, 1.0], [4.0, 1.125], [4.0, 1.25], [4.0, 1.375], [4.0, 1.5], [4.0, 1.625], [4.0, 1.75], [4.0, 1.875], [4.0, 2.0], [3.875, 2.0], [3.75, 2.0], [3.625, 2.0], [3.5, 2.0], [3.375, 2.0], [3.25, 2.0], [3.125, 2.0], [3.0, 2.0], [3.0, 1.875], [3.0, 1.75], [3.0, 1.625], [3.0, 1.5], [3.0, 1.375], [3.0, 1.25], [3.0, 1.125], [3, 1]]]}}, {"type": "Feature", "id": "c4-1", "properties": {"id": "c4-1", "name": "cell 4,1", "value": 2.6305}, "geometry": {"type": "Polygon", "coordinates": [[[4.0, 1.0], [4.125, 1.0], [4.25, 1.0], [4.375, 1.0], [4.5, 1.0], [4.625, 1.0], [4.75, 1.0], [4.875, 1.0], [5.0, 1.0], [5.0, 1.125], [5.0, 1.25], [5.0, 1.375], [5.0, 1.5], [5.0, 1.625], [5.0, 1.75], [5.0, 1.875], [5.0, 2.0], [4.875, 2.0], [4.75, 2.0], [4.625, 2.0], [4.5, 2.0], [4.375, 2.0], [4.25, 2.0], [4.125, 2.0], [4.0, 2.0], [4.0, 1.875], [4.0, 1.75], [4.0, 1.625], [4.0, 1.5], [4.0, 1.375], [4.0, 1.25], [4.0, 1.125], [4, 1]]]}}, {"type": "Feature", "id": "c0-2", "properties": {"id": "c0-2", "name": "cell 0,2", "value": 4.0922}, "geometry": {"type": "Polygon", "coordinates": [[[0.0, 2.0], [0.125, 2.0], [0.25, 2.0], [0.375, 2.0], [0.5, 2.0], [0.625, 2.0], [0.75, 2.0], [0.875, 2.0], [1.0, 2.0], [1.0, 2.125], [1.0, 2.25], [1.0, 2.375], [1.0, 2.5], [1.0, 2.625], [1.0, 2.75], [1.0, 2.875], [1.0, 3.0], [0.875, 3.0], [0.75, 3.0], [0.625, 3.0], [0.5, 3.0], [0.375, 3.0], [0.25, 3.0], [0.125, 3.0], [0.0, 3.0], [0.0, 2.875], [0.0, 2.75], [0.0, 2.625], [0.0, 2.5], [0.0, 2.375], [0.0, 2.25], [0.0, 2.125], [0, 2]]]}}, {"type": "Feature", "id": "c1-2", "properties": {"id": "c1-2", "name": "cell 1,2", "value": 22.0917}, "geometry": {"type": "Polygon", "coordinates": [[[1.0, 2.0], [1.125, 2.0], [1.25, 2.0], [1.375, 2.0], [1.5, 2.0], [1.625, 2.0], [1.75, 2.0], [1.875, 2.0], [2.0, 2.0], [2.0, 2.125], [2.0, 2.25], [2.0, 2.375], [2.0, 2.5], [2.0, 2.625], [2.0, 2.75], [2.0, 2.875], [2.0, 3.0], [1.875, 3.0], [1.75, 3.0], [1.625, 3.0], [1.5, 3.0], [1.375, 3.0], [1.25, 3.0], [1.125, 3.0], [1.0, 3.0], [1.0, 2.875], [1.0, 2.75], [1.0, 2.625], [1.0, 2.5], [1.0, 2.375], [1.0, 2.25], [1.0, 2.125], [1, 2]]]}}, {"type": "Feature", "id": "c2-2", "properties": {"id": "c2-2", "name": "cell 2,2", "value": 41.0}, "geometry": {"type": "Polygon", "coordinates": [[[2.0, 2.0], [2.125, 2.0], [2.25, 2.0], [2.375, 2.0], [2.5, 2.0], [2.625, 2.0], [2.75, 2.0], [2.875, 2.0], [3.0, 2.0], [3.0, 2.125], [3.0, 2.25], [3.0, 2.375], [3.0, 2.5], [3.0, 2.625], [3.0, 2.75], [3.0, 2.875], [3.0, 3.0], [2.875, 3.0], [2.75, 3.0], [2.625, 3.0], [2.5, 3.0], [2.375, 3.0], [2.25, 3.0], [2.125, 3.0], [2.0, 3.0], [2.0, 2.875], [2.0, 2.75], [2.0, 2.625], [2.0, 2.5], [2.0, 2.375], [2.0, 2.25], [2.0, 2.125], [2, 2]]]}}, {"type": "Feature", "id": "c3-2", "properties": {"id": "c3-2", "name": "cell 3,2", "value": 22.0917}, "geometry": {"type": "Polygon", "coordinates": [[[3.0, 2.0], [3.125, 2.0], [3.25, 2.0], [3.375, 2.0], [3.5, 2.0], [3.625, 2.0], [3.75, 2.0], [3.875, 2.0], [4.0, 2.0], [4.0, 2.125], [4.0, 2.25], [4.0, 2.375], [4.0, 2.5], [4.0, 2.625], [4.0, 2.75], [4.0, 2.875], [4.0, 3.0], [3.875, 3.0], [3.75, 3.0], [3.625, 3.0], [3.5, 3.0], [3.375, 3.0], [3.25, 3.0], [3.125, 3.0], [3.0, 3.0], [3.0, 2.875], [3.0, 2.75], [3.0, 2.625], [3.0, 2.5], [3.0, 2.375], [3.0, 2.25], [3.0, 2.125], [3, 2]]]}}, {"type": "Feature", "id": "c4-2", "properties": {"id": "c4-2", "name": "cell 4,2", "value": 4.0922}, "geometry": {"type": "Polygon", "coordinates": [[[4.0, 2.0], [4.125, 2.0], [4.25, 2.0], [4.375, 2.0], [4.5, 2.0], [4.625, 2.0], [4.75, 2.0], [4.875, 2.0], [5.0, 2.0], [5.0, 2.125], [5.0, 2.25], [5.0, 2.375], [5.0, 2.5], [5.0, 2.625], [5.0, 2.75], [5.0, 2.875], [5.0, 3.0], [4.875, 3.0], [4.75, 3.0], [4.625, 3.0], [4.5, 3.0], [4.375, 3.0], [4.25, 3.0], [4.125, 3.0], [4.0, 3.0], [4.0, 2.875], [4.0, 2.75], [4.0, 2.625], [4.0, 2.5], [4.0, 2.375], [4.0, 2.25], [4.0, 2.125], [4, 2]]]}}, {"type": "Feature", "id": "c0-3", "properties": {"id": "c0-3", "name": "cell 0,3", "value": 2.6305}, "geometry": {"type": "Polygon", "coordinates": [[[0.0, 3.0], [0.125, 3.0], [0.25, 3.0], [0.375, 3.0], [0.5, 3.0], [0.625, 3.0], [0.75, 3.0], [0.875, 3.0], [1.0, 3.0], [1.0, 3.125], [1.0, 3.25], [1.0, 3.375], [1.0, 3.5], [1.0, 3.625], [1.0, 3.75], [1.0, 3.875], [1.0, 4.0], [0.875, 4.0], [0.75, 4.0], [0.625, 4.0], [0.5, 4.0], [0.375, 4.0], [0.25, 4.0], [0.125, 4.0], [0.0, 4.0], [0.0, 3.875], [0.0, 3.75], [0.0, 3.625], [0.0, 3.5], [0.0, 3.375], [0.0, 3.25], [0.0, 3.125], [0, 3]]]}}, {"type": "Feature", "id": "c1-3", "properties": {"id": "c1-3", "name": "cell 1,3", "value": 12.1215}, "geometry": {"type": "Polygon", "coordinates": [[[1.0, 3.0], [1.125, 3.0], [1.25, 3.0], [1.375, 3.0], [1.5, 3.0], [1.625, 3.0], [1.75, 3.0], [1.875, 3.0], [2.0, 3.0], [2.0, 3.125], [2.0, 3.25], [2.0, 3.375], [2.0, 3.5], [2.0, 3.625], [2.0, 3.75], [2.0, 3.875], [2.0, 4.0], [1.875, 4.0], [1.75, 4.0], [1.625, 4.0], [1.5, 4.0], [1.375, 4.0], [1.25, 4.0], [1.125, 4.0], [1.0, 4.0], [1.0, 3.875], [1.0, 3.75], [1.0, 3.625], [1.0, 3.5], [1.0, 3.375], [1.0, 3.25], [1.0, 3.125], [1, 3]]]}}, {"type": "Feature", "id": "c2-3", "properties": {"id": "c2-3", "name": "cell 2,3", "value": 22.0917}, "geometry": {"type": "Polygon", "coordinates": [[[2.0, 3.0], [2.125, 3.0], [2.25, 3.0], [2.375, 3.0], [2.5, 3.0], [2.625, 3.0], [2.75, 3.0], [2.875, 3.0], [3.0, 3.0], [3.0, 3.125], [3.0, 3.25], [3.0, 3.375], [3.0, 3.5], [3.0, 3.625], [3.0, 3.75], [3.0, 3.875], [3.0, 4.0], [2.875, 4.0], [2.75, 4.0], [2.625, 4.0], [2.5, 4.0], [2.375, 4.0], [2.25, 4.0], [2.125, 4.0], [2.0, 4.0], [2.0, 3.875], [2.0, 3.75], [2.0, 3.625], [2.0, 3.5], [2.0, 3.375], [2.0, 3.25], [2.0, 3.125], [2, 3]]]}}, {"type": "Feature", "id": "c3-3", "properties": {"id": "c3-3", "name": "cell 3,3", "value": 12.1215}, "geometry": {"type": "Polygon", "coordinates": [[[3.0, 3.0], [3.125, 3.0], [3.25, 3.0], [3.375, 3.0], [3.5, 3.0], [3.625, 3.0], [3.75, 3.0], [3.875, 3.0], [4.0, 3.0], [4.0, 3.125], [4.0, 3.25], [4.0, 3.375], [4.0, 3.5], [4.0, 3.625], [4.0, 3.75], [4.0, 3.875], [4.0, 4.0], [3.875, 4.0], [3.75, 4.0], [3.625, 4.0], [3.5, 4.0], [3.375, 4.0], [3.25, 4.0], [3.125, 4.0], [3.0, 4.0], [3.0, 3.875], [3.0, 3.75], [3.0, 3.625], [3.0, 3.5], [3.0, 3.375], [3.0, 3.25], [3.0, 3.125], [3, 3]]]}}, {"type": "Feature", "id": "c4-3", "properties": {"id": "c4-3", "name": "cell 4,3", "value": 2.6305}, "geometry": {"type": "Polygon", "coordinates": [[[4.0, 3.0], [4.125, 3.0], [4.25, 3.0], [4.375, 3.0], [4.5, 3.0], [4.625, 3.0], [4.75, 3.0], [4.875, 3.0], [5.0, 3.0], [5.0, 3.125], [5.0, 3.25], [5.0, 3.375], [5.0, 3.5], [5.0, 3.625], [5.0, 3.75], [5.0, 3.875], [5.0, 4.0], [4.875, 4.0], [4.75, 4.0], [4.625, 4.0], [4.5, 4.0], [4.375, 4.0], [4.25, 4.0], [4.125, 4.0], [4.0, 4.0], [4.0, 3.875], [4.0, 3.75], [4.0, 3.625], [4.0, 3.5], [4.0, 3.375], [4.0, 3.25], [4.0, 3.125], [4, 3]]]}}, {"type": "Feature", "id": "c0-4", "properties": {"id": "c0-4", "name": "cell 0,4", "value": 1.239}, "geometry": {"type": "Polygon", "coordinates": [[[0.0, 4.0], [0.125, 4.0], [0.25, 4.0], [0.375, 4.0], [0.5, 4.0], [0.625, 4.0], [0.75, 4.0], [0.875, 4.0], [1.0, 4.0], [1.0, 4.125], [1.0, 4.25], [1.0, 4.375], [1.0, 4.5], [1.0, 4.625], [1.0, 4.75], [1.0, 4.875], [1.0, 5.0], [0.875, 5.0], [0.75, 5.0], [0.625, 5.0], [0.5, 5.0], [0.375, 5.0], [0.25, 5.0], [0.125, 5.0], [0.0, 5.0], [0.0, 4.875], [0.0, 4.75], [0.0, 4.625], [0.0, 4.5], [0.0, 4.375], [0.0, 4.25], [0.0, 4.125], [0, 4]]]}}, {"type": "Feature", "id": "c1-4", "properties": {"id": "c1-4", "name": "cell 1,4", "value": 2.6305}, "geometry": {"type": "Polygon", "coordinates": [[[1.0, 4.0], [1.125, 4.0], [1.25, 4.0], [1.375, 4.0], [1.5, 4.0], [1.625, 4.0], [1.75, 4.0], [1.875, 4.0], [2.0, 4.0], [2.0, 4.125], [2.0, 4.25], [2.0, 4.375], [2.0, 4.5], [2.0, 4.625], [2.0, 4.75], [2.0, 4.875], [2.0, 5.0], [1.875, 5.0], [1.75, 5.0], [1.625, 5.0], [1.5, 5.0], [1.375, 5.0], [1.25, 5.0], [1.125, 5.0], [1.0, 5.0], [1.0, 4.875], [1.0, 4.75], [1.0, 4.625], [1.0, 4.5], [1.0, 4.375], [1.0, 4.25], [1.0, 4.125], [1, 4]]]}}, {"type": "Feature", "id": "c2-4", "properties": {"id": "c2-4", "name": "cell 2,4", "value": 4.0922}, "geometry": {"type": "Polygon", "coordinates": [[[2.0, 4.0], [2.125, 4.0], [2.25, 4.0], [2.375, 4.0], [2.5, 4.0], [2.625, 4.0], [2.75, 4.0], [2.875, 4.0], [3.0, 4.0], [3.0, 4.125], [3.0, 4.25], [3.0, 4.375], [3.0, 4.5], [3.0, 4.625], [3.0, 4.75], [3.0, 4.875], [3.0, 5.0], [2.875, 5.0], [2.75, 5.0], [2.625, 5.0], [2.5, 5.0], [2.375, 5.0], [2.25, 5.0], [2.125, 5.0], [2.0, 5.0], [2.0, 4.875], [2.0, 4.75], [2.0, 4.625], [2.0, 4.5], [2.0, 4.375], [2.0, 4.25], [2.0, 4.125], [2, 4]]]}}, {"type": "Feature", "id": "c3-4", "properties": {"id": "c3-4", "name": "cell 3,4", "value": 2.6305}, "geometry": {"type": "Polygon", "coordinates": [[[3.0, 4.0], [3.125, 4.0], [3.25, 4.0], [3.375, 4.0], [3.5, 4.0], [3.625, 4.0], [3.75, 4.0], [3.875, 4.0], [4.0, 4.0], [4.0, 4.125], [4.0, 4.25], [4.0, 4.375], [4.0, 4.5], [4.0, 4.625], [4.0, 4.75], [4.0, 4.875], [4.0, 5.0], [3.875, 5.0], [3.75, 5.0], [3.625, 5.0], [3.5, 5.0], [3.375, 5.0], [3.25, 5.0], [3.125, 5.0], [3.0, 5.0], [3.0, 4.875], [3.0, 4.75], [3.0, 4.625], [3.0, 4.5], [3.0, 4.375], [3.0, 4.25], [3.0, 4.125], [3, 4]]]}}, {"type": "Feature", "id": "c4-4", "properties": {"id": "c4-4", "name": "cell 4,4", "value": 1.239}, "geometry": {"type": "Polygon", "coordinates": [[[4.0, 4.0], [4.125, 4.0], [4.25, 4.0], [4.375, 4.0], [4.5, 4.0], [4.625, 4.0], [4.75, 4.0], [4.875, 4.0], [5.0, 4.0], [5.0, 4.125], [5.0, 4.25], [5.0, 4.375], [5.0, 4.5], [5.0, 4.625], [5.0, 4.75], [5.0, 4.875], [5.0, 5.0], [4.875, 5.0], [4.75, 5.0], [4.625, 5.0], [4.5, 5.0], [4.375, 5.0], [4.25, 5.0], [4.125, 5.0], [4.0, 5.0], [4.0, 4.875], [4.0, 4.75], [4.0, 4.625], [4.0, 4.5], [4.0, 4.375], [4.0, 4.25], [4.0, 4.125], [4, 4]]]}}]}