{"type": "FeatureCollection", "features": [{"type": "Feature", "id": "r0", "properties": {"id": "r0", "name": "ring 0", "value": 1}, "geometry": {"type": "Polygon", "coordinates": [[[2.0, 0.0], [1.9903694533443939, 0.1960342806591212], [1.9615705608064609, 0.3901806440322565], [1.9138806714644176, 0.5805693545089247], [1.8477590650225735, 0.7653668647301796], [1.76384252869671, 0.9427934736519953], [1.6629392246050905, 1.1111404660392044], [1.546020906725474, 1.268786568327291], [1.4142135623730951, 1.414213562373095], [1.268786568327291, 1.546020906725474], [1.1111404660392046, 1.6629392246050905], [0.9427934736519956, 1.7638425286967099], [0.7653668647301797, 1.8477590650225735], [0.5805693545089247, 1.9138806714644179], [0.39018064403225666, 1.9615705608064609], [0.19603428065912154, 1.9903694533443936], [1.2246467991473532e-16, 2.0], [-0.1960342806591213, 1.9903694533443939], [-0.3901806440322564, 1.9615705608064609], [-0.5805693545089243, 1.9138806714644179], [-0.7653668647301795, 1.8477590650225735], [-0.9427934736519954, 1.76384252869671], [-1.111140466039204, 1.662939224605091], [-1.2687865683272908, 1.5460209067254742], [-1.414213562373095, 1.4142135623730951], [-1.546020906725474, 1.268786568327291], [-1.6629392246050907, 1.1111404660392044], [-1.7638425286967099, 0.9427934736519957], [-1.8477590650225735, 0.7653668647301798], [-1.9138806714644176, 0.5805693545089248], [-1.9615705608064609, 0.3901806440322572], [-1.9903694533443936, 0.19603428065912165], [-2.0, 2.4492935982947064e-16], [-1.9903694533443939, -0.19603428065912118], [-1.9615705608064609, -0.3901806440322567], [-1.9138806714644179, -0.5805693545089242], [-1.8477590650225737, -0.7653668647301793], [-1.76384252869671, -0.9427934736519953], [-1.662939224605091, -1.111140466039204], [-1.5460209067254742, -1.2687865683272905], [-1.4142135623730954, -1.414213562373095], [-1.2687865683272919, -1.5460209067254733], [-1.1111404660392044, -1.6629392246050905], [-0.9427934736519957, -1.7638425286967099], [-0.7653668647301807, -1.847759065022573], [-0.5805693545089249, -1.9138806714644176], [-0.39018064403225733, -1.9615705608064606], [-0.1960342806591209, -1.9903694533443939], [-3.6739403974420594e-16, -2.0], [0.19603428065912018, -1.9903694533443939], [0.3901806440322566, -1.9615705608064609], [0.5805693545089241, -1.9138806714644179], [0.76536686473018, -1.8477590650225733], [0.9427934736519952, -1.76384252869671], [1.1111404660392037, -1.662939224605091], [1.2687865683272912, -1.5460209067254738], [1.4142135623730947, -1.4142135623730954], [1.5460209067254733, -1.2687865683272919], [1.6629392246050905, -1.1111404660392044], [1.7638425286967097, -0.9427934736519958], [1.847759065022573, -0.7653668647301808], [1.9138806714644176, -0.580569354508925], [1.9615705608064606, -0.39018064403225744], [1.9903694533443939, -0.196034280659121], [2.0, 0.0]]]}}, {"type": "Feature", "id": "r1", "properties": {"id": "r1", "name": "ring 1", "value": 2}, "geometry": {"type": "Polygon", "coordinates": [[[4.0, 0.0], [3.9807389066887877, 0.3920685613182424], [3.9231411216129217, 0.780361288064513], [3.8277613429288353, 1.1611387090178493], [3.695518130045147, 1.5307337294603591], [3.52768505739342, 1.8855869473039906], [3.325878449210181, 2.2222809320784087], [3.092041813450948, 2.537573136654582], [2.8284271247461903, 2.82842712474619], [2.537573136654582, 3.092041813450948], [2.222280932078409, 3.325878449210181], [1.8855869473039912, 3.5276850573934198], [1.5307337294603593, 3.695518130045147], [1.1611387090178493, 3.8277613429288357], [0.7803612880645133, 3.9231411216129217], [0.3920685613182431, 3.9807389066887873], [2.4492935982947064e-16, 4.0], [-0.3920685613182426, 3.9807389066887877], [-0.7803612880645128, 3.9231411216129217], [-1.1611387090178487, 3.8277613429288357], [-1.530733729460359, 3.695518130045147], [-1.8855869473039908, 3.52768505739342], [-2.222280932078408, 3.325878449210182], [-2.5375731366545815, 3.0920418134509484], [-2.82842712474619, 2.8284271247461903], [-3.092041813450948, 2.537573136654582], [-3.3258784492101814, 2.2222809320784087], [-3.5276850573934198, 1.8855869473039915], [-3.695518130045147, 1.5307337294603596], [-3.8277613429288353, 1.1611387090178495], [-3.9231411216129217, 0.7803612880645144], [-3.9807389066887873, 0.3920685613182433], [-4.0, 4.898587196589413e-16], [-3.9807389066887877, -0.39206856131824236], [-3.9231411216129217, -0.7803612880645134], [-3.8277613429288357, -1.1611387090178484], [-3.6955181300451474, -1.5307337294603587], [-3.52768505739342, -1.8855869473039906], [-3.325878449210182, -2.222280932078408], [-3.0920418134509484, -2.537573136654581], [-2.8284271247461907, -2.82842712474619], [-2.5375731366545837, -3.0920418134509466], [-2.2222809320784087, -3.325878449210181], [-1.8855869473039915, -3.5276850573934198], [-1.5307337294603613, -3.695518130045146], [-1.1611387090178498, -3.8277613429288353], [-0.7803612880645147, -3.9231411216129213], [-0.3920685613182418, -3.9807389066887877], [-7.347880794884119e-16, -4.0], [0.39206856131824036, -3.9807389066887877], [0.7803612880645132, -3.9231411216129217], [1.1611387090178482, -3.8277613429288357], [1.53073372946036, -3.6955181300451465], [1.8855869473039903, -3.52768505739342], [2.2222809320784074, -3.325878449210182], [2.5375731366545824, -3.0920418134509475], [2.8284271247461894, -2.8284271247461907], [3.0920418134509466, -2.5375731366545837], [3.325878449210181, -2.2222809320784087], [3.5276850573934193, -1.8855869473039917], [3.695518130045146, -1.5307337294603616], [3.8277613429288353, -1.16113870901785], [3.9231411216129213, -0.7803612880645149], [3.9807389066887877, -0.392068561318242], [4.0, 0.0]], [[2.0, -0.0], [1.9903694533443939, -0.1960342806591212], [1.9615705608064609, -0.3901806440322565], [1.9138806714644176, -0.5805693545089247], [1.8477590650225735, -0.7653668647301796], [1.76384252869671, -0.9427934736519953], [1.6629392246050905, -1.1111404660392044], [1.546020906725474, -1.268786568327291], [1.4142135623730951, -1.414213562373095], [1.268786568327291, -1.546020906725474], [1.1111404660392046, -1.6629392246050905], [0.9427934736519956, -1.7638425286967099], [0.7653668647301797, -1.8477590650225735], [0.5805693545089247, -1.9138806714644179], [0.39018064403225666, -1.9615705608064609], [0.19603428065912154, -1.9903694533443936], [1.2246467991473532e-16, -2.0], [-0.1960342806591213, -1.9903694533443939], [-0.3901806440322564, -1.9615705608064609], [-0.5805693545089243, -1.9138806714644179], [-0.7653668647301795, -1.8477590650225735], [-0.9427934736519954, -1.76384252869671], [-1.111140466039204, -1.662939224605091], [-1.2687865683272908, -1.5460209067254742], [-1.414213562373095, -1.4142135623730951], [-1.546020906725474, -1.268786568327291], [-1.6629392246050907, -1.1111404660392044], [-1.7638425286967099, -0.9427934736519957], [-1.8477590650225735, -0.7653668647301798], [-1.9138806714644176, -0.5805693545089248], [-1.9615705608064609, -0.3901806440322572], [-1.9903694533443936, -0.19603428065912165], [-2.0, -2.4492935982947064e-16], [-1.9903694533443939, 0.19603428065912118], [-1.9615705608064609, 0.3901806440322567], [-1.9138806714644179, 0.5805693545089242], [-1.8477590650225737, 0.7653668647301793], [-1.76384252869671, 0.9427934736519953], [-1.662939224605091, 1.111140466039204], [-1.5460209067254742, 1.2687865683272905], [-1.4142135623730954, 1.414213562373095], [-1.2687865683272919, 1.5460209067254733], [-1.1111404660392044, 1.6629392246050905], [-0.9427934736519957, 1.7638425286967099], [-0.7653668647301807, 1.847759065022573], [-0.5805693545089249, 1.9138806714644176], [-0.39018064403225733, 1.9615705608064606], [-0.1960342806591209, 1.9903694533443939], [-3.6739403974420594e-16, 2.0], [0.19603428065912018, 1.9903694533443939], [0.3901806440322566, 1.9615705608064609], [0.5805693545089241, 1.9138806714644179], [0.76536686473018, 1.8477590650225733], [0.9427934736519952, 1.76384252869671], [1.1111404660392037, 1.662939224605091], [1.2687865683272912, 1.5460209067254738], [1.4142135623730947, 1.4142135623730954], [1.5460209067254733, 1.2687865683272919], [1.6629392246050905, 1.1111404660392044], [1.7638425286967097, 0.9427934736519958], [1.847759065022573, 0.7653668647301808], [1.9138806714644176, 0.580569354508925], [1.9615705608064606, 0.39018064403225744], [1.9903694533443939, 0.196034280659121], [2.0, -0.0]]]}}, {"type": "Feature", "id": "r2", "properties": {"id": "r2", "name": "ring 2", "value": 5}, "geometry": {"type": "Polygon", "coordinates": [[[6.0, 0.0], [5.971108360033181, 0.5881028419773636], [5.884711682419383, 1.1705419320967696], [5.741642014393253, 1.741708063526774], [5.54327719506772, 2.2961005941905386], [5.2915275860901305, 2.8283804209559857], [4.988817673815271, 3.333421398117613], [4.638062720176422, 3.806359704981873], [4.242640687119286, 4.242640687119285], [3.806359704981873, 4.638062720176422], [3.333421398117614, 4.988817673815271], [2.8283804209559866, 5.29152758609013], [2.296100594190539, 5.54327719506772], [1.741708063526774, 5.741642014393253], [1.17054193209677, 5.884711682419383], [0.5881028419773646, 5.971108360033181], [3.6739403974420594e-16, 6.0], [-0.5881028419773638, 5.971108360033181], [-1.1705419320967692, 5.884711682419383], [-1.741708063526773, 5.741642014393253], [-2.2961005941905386, 5.54327719506772], [-2.828380420955986, 5.2915275860901305], [-3.3334213981176117, 4.988817673815273], [-3.8063597049818725, 4.638062720176423], [-4.242640687119285, 4.242640687119286], [-4.638062720176422, 3.806359704981873], [-4.988817673815272, 3.333421398117613], [-5.29152758609013, 2.828380420955987], [-5.54327719506772, 2.2961005941905395], [-5.741642014393253, 1.7417080635267743], [-5.884711682419383, 1.1705419320967716], [-5.971108360033181, 0.588102841977365], [-6.0, 7.347880794884119e-16], [-5.971108360033181, -0.5881028419773635], [-5.884711682419383, -1.17054193209677], [-5.741642014393253, -1.7417080635267728], [-5.543277195067721, -2.296100594190538], [-5.2915275860901305, -2.8283804209559857], [-4.988817673815273, -3.3334213981176117], [-4.638062720176423, -3.8063597049818716], [-4.242640687119286, -4.242640687119285], [-3.8063597049818756, -4.6380627201764195], [-3.333421398117613, -4.988817673815271], [-2.828380420955987, -5.29152758609013], [-2.296100594190542, -5.543277195067719], [-1.7417080635267745, -5.741642014393253], [-1.170541932096772, -5.884711682419382], [-0.5881028419773627, -5.971108360033181], [-1.102182119232618e-15, -6.0], [0.5881028419773605, -5.971108360033181], [1.1705419320967698, -5.884711682419383], [1.7417080635267723, -5.741642014393253], [2.29610059419054, -5.54327719506772], [2.8283804209559857, -5.2915275860901305], [3.3334213981176113, -4.988817673815273], [3.8063597049818734, -4.638062720176421], [4.242640687119284, -4.242640687119286], [4.6380627201764195, -3.8063597049818756], [4.988817673815271, -3.333421398117613], [5.291527586090129, -2.8283804209559875], [5.543277195067719, -2.296100594190542], [5.741642014393253, -1.741708063526775], [5.884711682419382, -1.1705419320967723], [5.971108360033181, -0.5881028419773631], [6.0, 0.0]], [[4.0, -0.0], [3.9807389066887877, -0.3920685613182424], [3.9231411216129217, -0.780361288064513], [3.8277613429288353, -1.1611387090178493], [3.695518130045147, -1.5307337294603591], [3.52768505739342, -1.8855869473039906], [3.325878449210181, -2.2222809320784087], [3.092041813450948, -2.537573136654582], [2.8284271247461903, -2.82842712474619], [2.537573136654582, -3.092041813450948], [2.222280932078409, -3.325878449210181], [1.8855869473039912, -3.5276850573934198], [1.5307337294603593, -3.695518130045147], [1.1611387090178493, -3.8277613429288357], [0.7803612880645133, -3.9231411216129217], [0.3920685613182431, -3.9807389066887873], [2.4492935982947064e-16, -4.0], [-0.3920685613182426, -3.9807389066887877], [-0.7803612880645128, -3.9231411216129217], [-1.1611387090178487, -3.8277613429288357], [-1.530733729460359, -3.695518130045147], [-1.8855869473039908, -3.52768505739342], [-2.222280932078408, -3.325878449210182], [-2.5375731366545815, -3.0920418134509484], [-2.82842712474619, -2.8284271247461903], [-3.092041813450948, -2.537573136654582], [-3.3258784492101814, -2.2222809320784087], [-3.5276850573934198, -1.8855869473039915], [-3.695518130045147, -1.5307337294603596], [-3.8277613429288353, -1.1611387090178495], [-3.9231411216129217, -0.7803612880645144], [-3.9807389066887873, -0.3920685613182433], [-4.0, -4.898587196589413e-16], [-3.9807389066887877, 0.39206856131824236], [-3.9231411216129217, 0.7803612880645134], [-3.8277613429288357, 1.1611387090178484], [-3.6955181300451474, 1.5307337294603587], [-3.52768505739342, 1.8855869473039906], [-3.325878449210182, 2.222280932078408], [-3.0920418134509484, 2.537573136654581], [-2.8284271247461907, 2.82842712474619], [-2.5375731366545837, 3.0920418134509466], [-2.2222809320784087, 3.325878449210181], [-1.8855869473039915, 3.5276850573934198], [-1.5307337294603613, 3.695518130045146], [-1.1611387090178498, 3.8277613429288353], [-0.7803612880645147, 3.9231411216129213], [-0.3920685613182418, 3.9807389066887877], [-7.347880794884119e-16, 4.0], [0.39206856131824036, 3.9807389066887877], [0.7803612880645132, 3.9231411216129217], [1.1611387090178482, 3.8277613429288357], [1.53073372946036, 3.6955181300451465], [1.8855869473039903, 3.52768505739342], [2.2222809320784074, 3.325878449210182], [2.5375731366545824, 3.0920418134509475], [2.8284271247461894, 2.8284271247461907], [3.0920418134509466, 2.5375731366545837], [3.325878449210181, 2.2222809320784087], [3.5276850573934193, 1.8855869473039917], [3.695518130045146, 1.5307337294603616], [3.8277613429288353, 1.16113870901785], [3.9231411216129213, 0.7803612880645149], [3.9807389066887877, 0.392068561318242], [4.0, -0.0]]]}}, {"type": "Feature", "id": "r3", "properties": {"id": "r3", "name": "ring 3", "value": 10}, "geometry": {"type": "Polygon", "coordinates": [[[8.0, 0.0], [7.961477813377575, 0.7841371226364848], [7.8462822432258434, 1.560722576129026], [7.655522685857671, 2.3222774180356986], [7.391036260090294, 3.0614674589207183], [7.05537011478684, 3.771173894607981], [6.651756898420362, 4.444561864156817], [6.184083626901896, 5.075146273309164], [5.656854249492381, 5.65685424949238], [5.075146273309164, 6.184083626901896], [4.444561864156818, 6.651756898420362], [3.7711738946079825, 7.0553701147868395], [3.0614674589207187, 7.391036260090294], [2.3222774180356986, 7.6555226858576715], [1.5607225761290267, 7.8462822432258434], [0.7841371226364862, 7.9614778133775745], [4.898587196589413e-16, 8.0], [-0.7841371226364852, 7.961477813377575], [-1.5607225761290255, 7.8462822432258434], [-2.3222774180356973, 7.6555226858576715], [-3.061467458920718, 7.391036260090294], [-3.7711738946079816, 7.05537011478684], [-4.444561864156816, 6.651756898420364], [-5.075146273309163, 6.184083626901897], [-5.65685424949238, 5.656854249492381], [-6.184083626901896, 5.075146273309164], [-6.651756898420363, 4.444561864156817], [-7.0553701147868395, 3.771173894607983], [-7.391036260090294, 3.061467458920719], [-7.655522685857671, 2.322277418035699], [-7.8462822432258434, 1.5607225761290289], [-7.9614778133775745, 0.7841371226364866], [-8.0, 9.797174393178826e-16], [-7.961477813377575, -0.7841371226364847], [-7.8462822432258434, -1.5607225761290269], [-7.6555226858576715, -2.322277418035697], [-7.391036260090295, -3.0614674589207174], [-7.05537011478684, -3.771173894607981], [-6.651756898420364, -4.444561864156816], [-6.184083626901897, -5.075146273309162], [-5.6568542494923815, -5.65685424949238], [-5.0751462733091675, -6.184083626901893], [-4.444561864156817, -6.651756898420362], [-3.771173894607983, -7.0553701147868395], [-3.0614674589207227, -7.391036260090292], [-2.3222774180356995, -7.655522685857671], [-1.5607225761290293, -7.846282243225843], [-0.7841371226364836, -7.961477813377575], [-1.4695761589768238e-15, -8.0], [0.7841371226364807, -7.961477813377575], [1.5607225761290264, -7.8462822432258434], [2.3222774180356964, -7.6555226858576715], [3.06146745892072, -7.391036260090293], [3.7711738946079807, -7.05537011478684], [4.444561864156815, -6.651756898420364], [5.075146273309165, -6.184083626901895], [5.656854249492379, -5.6568542494923815], [6.184083626901893, -5.0751462733091675], [6.651756898420362, -4.444561864156817], [7.055370114786839, -3.7711738946079834], [7.391036260090292, -3.061467458920723], [7.655522685857671, -2.3222774180357], [7.846282243225843, -1.5607225761290298], [7.961477813377575, -0.784137122636484], [8.0, 0.0]], [[6.0, -0.0], [5.971108360033181, -0.5881028419773636], [5.884711682419383, -1.1705419320967696], [5.741642014393253, -1.741708063526774], [5.54327719506772, -2.2961005941905386], [5.2915275860901305, -2.8283804209559857], [4.988817673815271, -3.333421398117613], [4.638062720176422, -3.806359704981873], [4.242640687119286, -4.242640687119285], [3.806359704981873, -4.638062720176422], [3.333421398117614, -4.988817673815271], [2.8283804209559866, -5.29152758609013], [2.296100594190539, -5.54327719506772], [1.741708063526774, -5.741642014393253], [1.17054193209677, -5.884711682419383], [0.5881028419773646, -5.971108360033181], [3.6739403974420594e-16, -6.0], [-0.5881028419773638, -5.971108360033181], [-1.1705419320967692, -5.884711682419383], [-1.741708063526773, -5.741642014393253], [-2.2961005941905386, -5.54327719506772], [-2.828380420955986, -5.2915275860901305], [-3.3334213981176117, -4.988817673815273], [-3.8063597049818725, -4.638062720176423], [-4.242640687119285, -4.242640687119286], [-4.638062720176422, -3.806359704981873], [-4.988817673815272, -3.333421398117613], [-5.29152758609013, -2.828380420955987], [-5.54327719506772, -2.2961005941905395], [-5.741642014393253, -1.7417080635267743], [-5.884711682419383, -1.1705419320967716], [-5.971108360033181, -0.588102841977365], [-6.0, -7.347880794884119e-16], [-5.971108360033181, 0.5881028419773635], [-5.884711682419383, 1.17054193209677], [-5.741642014393253, 1.7417080635267728], [-5.543277195067721, 2.296100594190538], [-5.2915275860901305, 2.8283804209559857], [-4.988817673815273, 3.3334213981176117], [-4.638062720176423, 3.8063597049818716], [-4.242640687119286, 4.242640687119285], [-3.8063597049818756, 4.6380627201764195], [-3.333421398117613, 4.988817673815271], [-2.828380420955987, 5.29152758609013], [-2.296100594190542, 5.543277195067719], [-1.7417080635267745, 5.741642014393253], [-1.170541932096772, 5.884711682419382], [-0.5881028419773627, 5.971108360033181], [-1.102182119232618e-15, 6.0], [0.5881028419773605, 5.971108360033181], [1.1705419320967698, 5.884711682419383], [1.7417080635267723, 5.741642014393253], [2.29610059419054, 5.54327719506772], [2.8283804209559857, 5.2915275860901305], [3.3334213981176113, 4.988817673815273], [3.8063597049818734, 4.638062720176421], [4.242640687119284, 4.242640687119286], [4.6380627201764195, 3.8063597049818756], [4.988817673815271, 3.333421398117613], [5.291527586090129, 2.8283804209559875], [5.543277195067719, 2.296100594190542], [5.741642014393253, 1.741708063526775], [5.884711682419382, 1.1705419320967723], [5.971108360033181, 0.5881028419773631], [6.0, -0.0]]]}}, {"type": "Feature", "id": "r4", "properties": {"id": "r4", "name": "ring 4", "value": 17}, "geometry": {"type": "Polygon", "coordinates": [[[10.0, 0.0], [9.95184726672197, 0.980171403295606], [9.807852804032304, 1.9509032201612824], [9.569403357322088, 2.902846772544623], [9.238795325112868, 3.826834323650898], [8.819212643483551, 4.7139673682599765], [8.314696123025453, 5.555702330196022], [7.73010453362737, 6.343932841636455], [7.0710678118654755, 7.071067811865475], [6.343932841636455, 7.73010453362737], [5.555702330196023, 8.314696123025453], [4.713967368259978, 8.81921264348355], [3.8268343236508984, 9.238795325112868], [2.902846772544623, 9.56940335732209], [1.9509032201612833, 9.807852804032304], [0.9801714032956077, 9.951847266721968], [6.123233995736766e-16, 10.0], [-0.9801714032956065, 9.95184726672197], [-1.950903220161282, 9.807852804032304], [-2.9028467725446214, 9.56940335732209], [-3.826834323650897, 9.238795325112868], [-4.713967368259977, 8.819212643483551], [-5.55570233019602, 8.314696123025454], [-6.3439328416364535, 7.730104533627371], [-7.071067811865475, 7.0710678118654755], [-7.73010453362737, 6.343932841636455], [-8.314696123025453, 5.555702330196022], [-8.81921264348355, 4.713967368259978], [-9.238795325112868, 3.826834323650899], [-9.569403357322088, 2.902846772544624], [-9.807852804032304, 1.9509032201612861], [-9.951847266721968, 0.9801714032956083], [-10.0, 1.2246467991473533e-15], [-9.95184726672197, -0.9801714032956059], [-9.807852804032304, -1.9509032201612837], [-9.56940335732209, -2.902846772544621], [-9.238795325112868, -3.8268343236508966], [-8.819212643483551, -4.7139673682599765], [-8.314696123025454, -5.55570233019602], [-7.730104533627371, -6.343932841636453], [-7.071067811865477, -7.071067811865475], [-6.343932841636459, -7.730104533627367], [-5.555702330196022, -8.314696123025453], [-4.713967368259978, -8.81921264348355], [-3.8268343236509033, -9.238795325112864], [-2.9028467725446245, -9.569403357322088], [-1.9509032201612866, -9.807852804032303], [-0.9801714032956045, -9.95184726672197], [-1.8369701987210296e-15, -10.0], [0.9801714032956009, -9.95184726672197], [1.950903220161283, -9.807852804032304], [2.9028467725446205, -9.56940335732209], [3.8268343236509, -9.238795325112866], [4.713967368259976, -8.819212643483551], [5.555702330196018, -8.314696123025454], [6.343932841636456, -7.730104533627369], [7.071067811865474, -7.071067811865477], [7.730104533627367, -6.343932841636459], [8.314696123025453, -5.555702330196022], [8.819212643483548, -4.713967368259979], [9.238795325112864, -3.826834323650904], [9.569403357322088, -2.902846772544625], [9.807852804032303, -1.9509032201612873], [9.95184726672197, -0.980171403295605], [10.0, 0.0]], [[8.0, -0.0], [7.961477813377575, -0.7841371226364848], [7.8462822432258434, -1.560722576129026], [7.655522685857671, -2.3222774180356986], [7.391036260090294, -3.0614674589207183], [7.05537011478684, -3.771173894607981], [6.651756898420362, -4.444561864156817], [6.184083626901896, -5.075146273309164], [5.656854249492381, -5.65685424949238], [5.075146273309164, -6.184083626901896], [4.444561864156818, -6.651756898420362], [3.7711738946079825, -7.0553701147868395], [3.0614674589207187, -7.391036260090294], [2.3222774180356986, -7.6555226858576715], [1.5607225761290267, -7.8462822432258434], [0.7841371226364862, -7.9614778133775745], [4.898587196589413e-16, -8.0], [-0.7841371226364852, -7.961477813377575], [-1.5607225761290255, -7.8462822432258434], [-2.3222774180356973, -7.6555226858576715], [-3.061467458920718, -7.391036260090294], [-3.7711738946079816, -7.05537011478684], [-4.444561864156816, -6.651756898420364], [-5.075146273309163, -6.184083626901897], [-5.65685424949238, -5.656854249492381], [-6.184083626901896, -5.075146273309164], [-6.651756898420363, -4.444561864156817], [-7.0553701147868395, -3.771173894607983], [-7.391036260090294, -3.061467458920719], [-7.655522685857671, -2.322277418035699], [-7.8462822432258434, -1.5607225761290289], [-7.9614778133775745, -0.7841371226364866], [-8.0, -9.797174393178826e-16], [-7.961477813377575, 0.7841371226364847], [-7.8462822432258434, 1.5607225761290269], [-7.6555226858576715, 2.322277418035697], [-7.391036260090295, 3.0614674589207174], [-7.05537011478684, 3.771173894607981], [-6.651756898420364, 4.444561864156816], [-6.184083626901897, 5.075146273309162], [-5.6568542494923815, 5.65685424949238], [-5.0751462733091675, 6.184083626901893], [-4.444561864156817, 6.651756898420362], [-3.771173894607983, 7.0553701147868395], [-3.0614674589207227, 7.391036260090292], [-2.3222774180356995, 7.655522685857671], [-1.5607225761290293, 7.846282243225843], [-0.7841371226364836, 7.961477813377575], [-1.4695761589768238e-15, 8.0], [0.7841371226364807, 7.961477813377575], [1.5607225761290264, 7.8462822432258434], [2.3222774180356964, 7.6555226858576715], [3.06146745892072, 7.391036260090293], [3.7711738946079807, 7.05537011478684], [4.444561864156815, 6.651756898420364], [5.075146273309165, 6.184083626901895], [5.656854249492379, 5.6568542494923815], [6.184083626901893, 5.0751462733091675], [6.651756898420362, 4.444561864156817], [7.055370114786839, 3.7711738946079834], [7.391036260090292, 3.061467458920723], [7.655522685857671, 2.3222774180357], [7.846282243225843, 1.5607225761290298], [7.961477813377575, 0.784137122636484], [8.0, -0.0]]]}}, {"type": "Feature", "id": "r5", "properties": {"id": "r5", "name": "ring 5", "value": 26}, "geometry": {"type": "Polygon", "coordinates": [[[12.0, 0.0], [11.942216720066362, 1.1762056839547272], [11.769423364838765, 2.341083864193539], [11.483284028786507, 3.483416127053548], [11.08655439013544, 4.592201188381077], [10.583055172180261, 5.6567608419119715], [9.977635347630542, 6.666842796235226], [9.276125440352844, 7.612719409963746], [8.485281374238571, 8.48528137423857], [7.612719409963746, 9.276125440352844], [6.666842796235228, 9.977635347630542], [5.656760841911973, 10.58305517218026], [4.592201188381078, 11.08655439013544], [3.483416127053548, 11.483284028786507], [2.34108386419354, 11.769423364838765], [1.1762056839547292, 11.942216720066362], [7.347880794884119e-16, 12.0], [-1.1762056839547277, 11.942216720066362], [-2.3410838641935383, 11.769423364838765], [-3.483416127053546, 11.483284028786507], [-4.592201188381077, 11.08655439013544], [-5.656760841911972, 10.583055172180261], [-6.6668427962352235, 9.977635347630546], [-7.612719409963745, 9.276125440352846], [-8.48528137423857, 8.485281374238571], [-9.276125440352844, 7.612719409963746], [-9.977635347630544, 6.666842796235226], [-10.58305517218026, 5.656760841911974], [-11.08655439013544, 4.592201188381079], [-11.483284028786507, 3.4834161270535486], [-11.769423364838765, 2.341083864193543], [-11.942216720066362, 1.17620568395473], [-12.0, 1.4695761589768238e-15], [-11.942216720066362, -1.176205683954727], [-11.769423364838765, -2.34108386419354], [-11.483284028786507, -3.4834161270535455], [-11.086554390135442, -4.592201188381076], [-10.583055172180261, -5.6567608419119715], [-9.977635347630546, -6.6668427962352235], [-9.276125440352846, -7.612719409963743], [-8.485281374238571, -8.48528137423857], [-7.612719409963751, -9.276125440352839], [-6.666842796235226, -9.977635347630542], [-5.656760841911974, -10.58305517218026], [-4.592201188381084, -11.086554390135438], [-3.483416127053549, -11.483284028786507], [-2.341083864193544, -11.769423364838763], [-1.1762056839547255, -11.942216720066362], [-2.204364238465236e-15, -12.0], [1.176205683954721, -11.942216720066362], [2.3410838641935396, -11.769423364838765], [3.4834161270535446, -11.483284028786507], [4.59220118838108, -11.08655439013544], [5.6567608419119715, -10.583055172180261], [6.666842796235223, -9.977635347630546], [7.612719409963747, -9.276125440352843], [8.485281374238568, -8.485281374238571], [9.276125440352839, -7.612719409963751], [9.977635347630542, -6.666842796235226], [10.583055172180257, -5.656760841911975], [11.086554390135438, -4.592201188381084], [11.483284028786507, -3.48341612705355], [11.769423364838763, -2.3410838641935445], [11.942216720066362, -1.1762056839547261], [12.0, 0.0]], [[10.0, -0.0], [9.95184726672197, -0.980171403295606], [9.807852804032304, -1.9509032201612824], [9.569403357322088, -2.902846772544623], [9.238795325112868, -3.826834323650898], [8.819212643483551, -4.7139673682599765], [8.314696123025453, -5.555702330196022], [7.73010453362737, -6.343932841636455], [7.0710678118654755, -7.071067811865475], [6.343932841636455, -7.73010453362737], [5.555702330196023, -8.314696123025453], [4.713967368259978, -8.81921264348355], [3.8268343236508984, -9.238795325112868], [2.902846772544623, -9.56940335732209], [1.9509032201612833, -9.807852804032304], [0.9801714032956077, -9.951847266721968], [6.123233995736766e-16, -10.0], [-0.9801714032956065, -9.95184726672197], [-1.950903220161282, -9.807852804032304], [-2.9028467725446214, -9.56940335732209], [-3.826834323650897, -9.238795325112868], [-4.713967368259977, -8.819212643483551], [-5.55570233019602, -8.314696123025454], [-6.3439328416364535, -7.730104533627371], [-7.071067811865475, -7.0710678118654755], [-7.73010453362737, -6.343932841636455], [-8.314696123025453, -5.555702330196022], [-8.81921264348355, -4.713967368259978], [-9.238795325112868, -3.826834323650899], [-9.569403357322088, -2.902846772544624], [-9.807852804032304, -1.9509032201612861], [-9.951847266721968, -0.9801714032956083], [-10.0, -1.2246467991473533e-15], [-9.95184726672197, 0.9801714032956059], [-9.807852804032304, 1.9509032201612837], [-9.56940335732209, 2.902846772544621], [-9.238795325112868, 3.8268343236508966], [-8.819212643483551, 4.7139673682599765], [-8.314696123025454, 5.55570233019602], [-7.730104533627371, 6.343932841636453], [-7.071067811865477, 7.071067811865475], [-6.343932841636459, 7.730104533627367], [-5.555702330196022, 8.314696123025453], [-4.713967368259978, 8.81921264348355], [-3.8268343236509033, 9.238795325112864], [-2.9028467725446245, 9.569403357322088], [-1.9509032201612866, 9.807852804032303], [-0.9801714032956045, 9.95184726672197], [-1.8369701987210296e-15, 10.0], [0.9801714032956009, 9.95184726672197], [1.950903220161283, 9.807852804032304], [2.9028467725446205, 9.56940335732209], [3.8268343236509, 9.238795325112866], [4.713967368259976, 8.819212643483551], [5.555702330196018, 8.314696123025454], [6.343932841636456, 7.730104533627369], [7.071067811865474, 7.071067811865477], [7.730104533627367, 6.343932841636459], [8.314696123025453, 5.555702330196022], [8.819212643483548, 4.713967368259979], [9.238795325112864, 3.826834323650904], [9.569403357322088, 2.902846772544625], [9.807852804032303, 1.9509032201612873], [9.95184726672197, 0.980171403295605], [10.0, -0.0]]]}}, {"type": "Feature", "id": "r6", "properties": {"id": "r6", "name": "ring 6", "value": 37}, "geometry": {"type": "Polygon", "coordinates": [[[14.0, 0.0], [13.932586173410757, 1.3722399646138483], [13.730993925645226, 2.7312645082257956], [13.397164700250924, 4.063985481562472], [12.934313455158014, 5.357568053111257], [12.346897700876971, 6.599554315563967], [11.640574572235634, 7.7779832622744305], [10.822146347078318, 8.881505978291036], [9.899494936611665, 9.899494936611664], [8.881505978291036, 10.822146347078318], [7.777983262274432, 11.640574572235634], [6.599554315563969, 12.34689770087697], [5.357568053111258, 12.934313455158014], [4.063985481562472, 13.397164700250926], [2.7312645082257965, 13.730993925645226], [1.3722399646138508, 13.932586173410755], [8.572527594031472e-16, 14.0], [-1.372239964613849, 13.932586173410757], [-2.7312645082257947, 13.730993925645226], [-4.0639854815624705, 13.397164700250926], [-5.357568053111256, 12.934313455158014], [-6.599554315563967, 12.346897700876971], [-7.777983262274427, 11.640574572235636], [-8.881505978291035, 10.82214634707832], [-9.899494936611664, 9.899494936611665], [-10.822146347078318, 8.881505978291036], [-11.640574572235636, 7.7779832622744305], [-12.34689770087697, 6.59955431556397], [-12.934313455158014, 5.357568053111258], [-13.397164700250924, 4.063985481562473], [-13.730993925645226, 2.7312645082258005], [-13.932586173410755, 1.3722399646138514], [-14.0, 1.7145055188062944e-15], [-13.932586173410757, -1.3722399646138483], [-13.730993925645226, -2.731264508225797], [-13.397164700250926, -4.06398548156247], [-12.934313455158016, -5.3575680531112555], [-12.346897700876971, -6.599554315563967], [-11.640574572235636, -7.777983262274427], [-10.82214634707832, -8.881505978291035], [-9.899494936611667, -9.899494936611664], [-8.881505978291043, -10.822146347078313], [-7.7779832622744305, -11.640574572235634], [-6.59955431556397, -12.34689770087697], [-5.357568053111264, -12.934313455158012], [-4.063985481562474, -13.397164700250924], [-2.7312645082258014, -13.730993925645224], [-1.3722399646138463, -13.932586173410757], [-2.5717582782094417e-15, -14.0], [1.3722399646138412, -13.932586173410757], [2.731264508225796, -13.730993925645226], [4.063985481562469, -13.397164700250926], [5.35756805311126, -12.934313455158012], [6.599554315563966, -12.346897700876971], [7.777983262274426, -11.640574572235636], [8.881505978291038, -10.822146347078316], [9.899494936611664, -9.899494936611667], [10.822146347078313, -8.881505978291043], [11.640574572235634, -7.7779832622744305], [12.346897700876967, -6.599554315563971], [12.934313455158012, -5.357568053111265], [13.397164700250924, -4.063985481562475], [13.730993925645224, -2.7312645082258022], [13.932586173410757, -1.372239964613847], [14.0, 0.0]], [[12.0, -0.0], [11.942216720066362, -1.1762056839547272], [11.769423364838765, -2.341083864193539], [11.483284028786507, -3.483416127053548], [11.08655439013544, -4.592201188381077], [10.583055172180261, -5.6567608419119715], [9.977635347630542, -6.666842796235226], [9.276125440352844, -7.612719409963746], [8.485281374238571, -8.48528137423857], [7.612719409963746, -9.276125440352844], [6.666842796235228, -9.977635347630542], [5.656760841911973, -10.58305517218026], [4.592201188381078, -11.08655439013544], [3.483416127053548, -11.483284028786507], [2.34108386419354, -11.769423364838765], [1.1762056839547292, -11.942216720066362], [7.347880794884119e-16, -12.0], [-1.1762056839547277, -11.942216720066362], [-2.3410838641935383, -11.769423364838765], [-3.483416127053546, -11.483284028786507], [-4.592201188381077, -11.08655439013544], [-5.656760841911972, -10.583055172180261], [-6.6668427962352235, -9.977635347630546], [-7.612719409963745, -9.276125440352846], [-8.48528137423857, -8.485281374238571], [-9.276125440352844, -7.612719409963746], [-9.977635347630544, -6.666842796235226], [-10.58305517218026, -5.656760841911974], [-11.08655439013544, -4.592201188381079], [-11.483284028786507, -3.4834161270535486], [-11.769423364838765, -2.341083864193543], [-11.942216720066362, -1.17620568395473], [-12.0, -1.4695761589768238e-15], [-11.942216720066362, 1.176205683954727], [-11.769423364838765, 2.34108386419354], [-11.483284028786507, 3.4834161270535455], [-11.086554390135442, 4.592201188381076], [-10.583055172180261, 5.6567608419119715], [-9.977635347630546, 6.6668427962352235], [-9.276125440352846, 7.612719409963743], [-8.485281374238571, 8.48528137423857], [-7.612719409963751, 9.276125440352839], [-6.666842796235226, 9.977635347630542], [-5.656760841911974, 10.58305517218026], [-4.592201188381084, 11.086554390135438], [-3.483416127053549, 11.483284028786507], [-2.341083864193544, 11.769423364838763], [-1.1762056839547255, 11.942216720066362], [-2.204364238465236e-15, 12.0], [1.176205683954721, 11.942216720066362], [2.3410838641935396, 11.769423364838765], [3.4834161270535446, 11.483284028786507], [4.59220118838108, 11.08655439013544], [5.6567608419119715, 10.583055172180261], [6.666842796235223, 9.977635347630546], [7.612719409963747, 9.276125440352843], [8.485281374238568, 8.485281374238571], [9.276125440352839, 7.612719409963751], [9.977635347630542, 6.666842796235226], [10.583055172180257, 5.656760841911975], [11.086554390135438, 4.592201188381084], [11.483284028786507, 3.48341612705355], [11.769423364838763, 2.3410838641935445], [11.942216720066362, 1.1762056839547261], [12.0, -0.0]]]}}, {"type": "Feature", "id": "r7", "properties": {"id": "r7", "name": "ring 7", "value": 50}, "geometry": {"type": "Polygon", "coordinates": [[[16.0, 0.0], [15.92295562675515, 1.5682742452729697], [15.692564486451687, 3.121445152258052], [15.311045371715341, 4.644554836071397], [14.782072520180588, 6.1229349178414365], [14.11074022957368, 7.542347789215962], [13.303513796840724, 8.889123728313635], [12.368167253803792, 10.150292546618328], [11.313708498984761, 11.31370849898476], [10.150292546618328, 12.368167253803792], [8.889123728313637, 13.303513796840724], [7.542347789215965, 14.110740229573679], [6.122934917841437, 14.782072520180588], [4.644554836071397, 15.311045371715343], [3.1214451522580533, 15.692564486451687], [1.5682742452729723, 15.922955626755149], [9.797174393178826e-16, 16.0], [-1.5682742452729703, 15.92295562675515], [-3.121445152258051, 15.692564486451687], [-4.644554836071395, 15.311045371715343], [-6.122934917841436, 14.782072520180588], [-7.542347789215963, 14.11074022957368], [-8.889123728313631, 13.303513796840727], [-10.150292546618326, 12.368167253803794], [-11.31370849898476, 11.313708498984761], [-12.368167253803792, 10.150292546618328], [-13.303513796840726, 8.889123728313635], [-14.110740229573679, 7.542347789215966], [-14.782072520180588, 6.122934917841438], [-15.311045371715341, 4.644554836071398], [-15.692564486451687, 3.1214451522580577], [-15.922955626755149, 1.5682742452729732], [-16.0, 1.959434878635765e-15], [-15.92295562675515, -1.5682742452729694], [-15.692564486451687, -3.1214451522580537], [-15.311045371715343, -4.644554836071394], [-14.78207252018059, -6.122934917841435], [-14.11074022957368, -7.542347789215962], [-13.303513796840727, -8.889123728313631], [-12.368167253803794, -10.150292546618324], [-11.313708498984763, -11.31370849898476], [-10.150292546618335, -12.368167253803787], [-8.889123728313635, -13.303513796840724], [-7.542347789215966, -14.110740229573679], [-6.122934917841445, -14.782072520180584], [-4.644554836071399, -15.311045371715341], [-3.1214451522580586, -15.692564486451685], [-1.5682742452729672, -15.92295562675515], [-2.9391523179536475e-15, -16.0], [1.5682742452729614, -15.92295562675515], [3.121445152258053, -15.692564486451687], [4.644554836071393, -15.311045371715343], [6.12293491784144, -14.782072520180586], [7.542347789215961, -14.11074022957368], [8.88912372831363, -13.303513796840727], [10.15029254661833, -12.36816725380379], [11.313708498984758, -11.313708498984763], [12.368167253803787, -10.150292546618335], [13.303513796840724, -8.889123728313635], [14.110740229573677, -7.542347789215967], [14.782072520180584, -6.122934917841446], [15.311045371715341, -4.6445548360714], [15.692564486451685, -3.1214451522580595], [15.92295562675515, -1.568274245272968], [16.0, 0.0]], [[14.0, -0.0], [13.932586173410757, -1.3722399646138483], [13.730993925645226, -2.7312645082257956], [13.397164700250924, -4.063985481562472], [12.934313455158014, -5.357568053111257], [12.346897700876971, -6.599554315563967], [11.640574572235634, -7.7779832622744305], [10.822146347078318, -8.881505978291036], [9.899494936611665, -9.899494936611664], [8.881505978291036, -10.822146347078318], [7.777983262274432, -11.640574572235634], [6.599554315563969, -12.34689770087697], [5.357568053111258, -12.934313455158014], [4.063985481562472, -13.397164700250926], [2.7312645082257965, -13.730993925645226], [1.3722399646138508, -13.932586173410755], [8.572527594031472e-16, -14.0], [-1.372239964613849, -13.932586173410757], [-2.7312645082257947, -13.730993925645226], [-4.0639854815624705, -13.397164700250926], [-5.357568053111256, -12.934313455158014], [-6.599554315563967, -12.346897700876971], [-7.777983262274427, -11.640574572235636], [-8.881505978291035, -10.82214634707832], [-9.899494936611664, -9.899494936611665], [-10.822146347078318, -8.881505978291036], [-11.640574572235636, -7.7779832622744305], [-12.34689770087697, -6.59955431556397], [-12.934313455158014, -5.357568053111258], [-13.397164700250924, -4.063985481562473], [-13.730993925645226, -2.7312645082258005], [-13.932586173410755, -1.3722399646138514], [-14.0, -1.7145055188062944e-15], [-13.932586173410757, 1.3722399646138483], [-13.730993925645226, 2.731264508225797], [-13.397164700250926, 4.06398548156247], [-12.934313455158016, 5.3575680531112555], [-12.346897700876971, 6.599554315563967], [-11.640574572235636, 7.777983262274427], [-10.82214634707832, 8.881505978291035], [-9.899494936611667, 9.899494936611664], [-8.881505978291043, 10.822146347078313], [-7.7779832622744305, 11.640574572235634], [-6.59955431556397, 12.34689770087697], [-5.357568053111264, 12.934313455158012], [-4.063985481562474, 13.397164700250924], [-2.7312645082258014, 13.730993925645224], [-1.3722399646138463, 13.932586173410757], [-2.5717582782094417e-15, 14.0], [1.3722399646138412, 13.932586173410757], [2.731264508225796, 13.730993925645226], [4.063985481562469, 13.397164700250926], [5.35756805311126, 12.934313455158012], [6.599554315563966, 12.346897700876971], [7.777983262274426, 11.640574572235636], [8.881505978291038, 10.822146347078316], [9.899494936611664, 9.899494936611667], [10.822146347078313, 8.881505978291043], [11.640574572235634, 7.7779832622744305], [12.346897700876967, 6.599554315563971], [12.934313455158012, 5.357568053111265], [13.397164700250924, 4.063985481562475], [13.730993925645224, 2.7312645082258022], [13.932586173410757, 1.372239964613847], [14.0, -0.0]]]}}]}